{"type":"Feature","properties":{"proposalId":"cinque-torri-three-refuges-assisted","name":"Cinque Torri three-refuges chairlift-assisted circuit","sourceUrl":"https://5torri.it/GPX/Il-giro-dei-3-rifugi.gpx","sourceAuthority":"local-lift-and-destination-route-portal","retrievedAt":"2026-08-18","computedDistanceKm":5.32,"pointCount":204,"closureDistanceM":17,"rawGpxElevation":{"pointCount":204,"minimumM":1893,"maximumM":2240,"rawAscentM":305},"geometryAssessment":{"version":"geometry-v1","status":"passed","isClosed":true,"closureDistanceM":17,"distanceKm":5.32,"maxSegmentM":120,"pointCount":204,"issues":[]},"humanGate":"geometry-approval","publicMutationAllowed":false},"geometry":{"type":"LineString","coordinates":[[12.038214,46.518736],[12.038214,46.518736],[12.038214,46.518736],[12.038214,46.518736],[12.0388,46.517991],[12.039387,46.517247],[12.039974,46.516502],[12.04056,46.515758],[12.041147,46.515013],[12.041733,46.514269],[12.04232,46.513524],[12.042906,46.51278],[12.043493,46.512035],[12.044079,46.511291],[12.044666,46.510546],[12.045252,46.509802],[12.045839,46.509057],[12.046179,46.50865],[12.04652,46.508243],[12.046604,46.508149],[12.046886,46.508246],[12.046946,46.508242],[12.046946,46.508242],[12.047106,46.508035],[12.047157,46.50841],[12.047672,46.509134],[12.04767,46.509272],[12.047667,46.509314],[12.047695,46.509365],[12.047674,46.509435],[12.047983,46.509677],[12.048062,46.509728],[12.048062,46.509728],[12.048081,46.50979],[12.048064,46.509835],[12.048165,46.509915],[12.048103,46.510017],[12.048231,46.51008],[12.048252,46.510078],[12.048364,46.510065],[12.048539,46.510135],[12.04861,46.510244],[12.048979,46.510432],[12.049018,46.510434],[12.049046,46.510423],[12.049072,46.510374],[12.049113,46.510355],[12.049113,46.510355],[12.049113,46.510355],[12.049148,46.51034],[12.049243,46.510352],[12.049292,46.510393],[12.04926,46.510526],[12.049338,46.510705],[12.049426,46.510761],[12.049394,46.510856],[12.049376,46.510913],[12.049346,46.510996],[12.049412,46.511068],[12.049403,46.511088],[12.049318,46.511284],[12.04939,46.51129],[12.049455,46.511347],[12.049821,46.511108],[12.050041,46.511048],[12.050317,46.511071],[12.050809,46.511012],[12.050812,46.51101],[12.050889,46.51097],[12.051351,46.511039],[12.051962,46.510803],[12.052037,46.510679],[12.052341,46.510625],[12.052665,46.510485],[12.053063,46.510393],[12.053139,46.510375],[12.053215,46.510352],[12.05331,46.510293],[12.053493,46.510166],[12.053741,46.510025],[12.053975,46.509842],[12.053969,46.509707],[12.054031,46.509681],[12.054178,46.509362],[12.054355,46.509315],[12.054285,46.509062],[12.054414,46.509074],[12.054464,46.509071],[12.05449,46.509045],[12.054458,46.508972],[12.054444,46.508931],[12.054397,46.508915],[12.054061,46.508598],[12.05443,46.508713],[12.054285,46.508555],[12.054599,46.508585],[12.054654,46.50853],[12.054558,46.50847],[12.054586,46.508448],[12.054489,46.508198],[12.05453,46.508152],[12.054555,46.508147],[12.054655,46.508113],[12.054759,46.508079],[12.054855,46.508136],[12.054977,46.508262],[12.055302,46.508388],[12.055644,46.508445],[12.055967,46.508497],[12.056455,46.508562],[12.056628,46.508643],[12.056772,46.50871],[12.056954,46.508763],[12.057657,46.509047],[12.057694,46.509145],[12.057642,46.509254],[12.057643,46.509344],[12.057765,46.509432],[12.058315,46.509767],[12.058637,46.510039],[12.058946,46.510201],[12.059021,46.510431],[12.058949,46.510683],[12.058938,46.510743],[12.058931,46.510827],[12.058832,46.511045],[12.058712,46.511159],[12.057958,46.511359],[12.057821,46.511437],[12.05763,46.511693],[12.057619,46.511789],[12.057719,46.511924],[12.05769,46.511995],[12.057391,46.511963],[12.057128,46.512171],[12.056638,46.512286],[12.055819,46.512798],[12.055188,46.512993],[12.053918,46.51362],[12.053213,46.513832],[12.05285,46.514125],[12.052294,46.514466],[12.052106,46.514657],[12.052089,46.514703],[12.052032,46.514735],[12.051855,46.514798],[12.051695,46.514933],[12.051526,46.515077],[12.051392,46.515111],[12.051321,46.515242],[12.051217,46.515249],[12.051138,46.515333],[12.050923,46.515332],[12.050638,46.515427],[12.050599,46.515538],[12.05023,46.515687],[12.049923,46.516014],[12.049939,46.516329],[12.050232,46.516595],[12.05028,46.51713],[12.050193,46.517214],[12.049457,46.517351],[12.049346,46.517456],[12.049187,46.517428],[12.049004,46.517516],[12.048645,46.517587],[12.048453,46.517599],[12.048157,46.51754],[12.048021,46.517726],[12.047862,46.517726],[12.047716,46.517826],[12.047085,46.518069],[12.046907,46.518196],[12.046888,46.518278],[12.046629,46.51852],[12.04563,46.519035],[12.045526,46.519172],[12.044975,46.519317],[12.044942,46.519327],[12.044925,46.519326],[12.044403,46.519472],[12.044271,46.519629],[12.044084,46.519559],[12.043267,46.519801],[12.042989,46.520024],[12.042828,46.52009],[12.042584,46.520088],[12.042498,46.52002],[12.042337,46.519998],[12.042172,46.520028],[12.04213,46.519986],[12.041766,46.520055],[12.04153,46.520039],[12.041347,46.520102],[12.041131,46.519892],[12.040658,46.519913],[12.040287,46.519726],[12.040197,46.519609],[12.039478,46.519428],[12.039374,46.519327],[12.039247,46.519327],[12.038918,46.519197],[12.038626,46.518961],[12.03839,46.518832]]}}
