{"type":"Feature","properties":{"proposalId":"lago-braies-seeweg-circuit","name":"Lago di Braies Seeweg circuit","sourceUrl":"https://www.pustertal.org/external/gpx/?id=1803&lang_id=12","sourceAuthority":"regional-destination-route-portal","retrievedAt":"2026-08-18","computedDistanceKm":3.49,"pointCount":171,"closureDistanceM":0,"rawGpxElevation":null,"geometryAssessment":{"version":"geometry-v1","status":"passed","isClosed":true,"closureDistanceM":0,"distanceKm":3.49,"maxSegmentM":97,"pointCount":171,"issues":[]},"humanGate":"geometry-approval","publicMutationAllowed":false},"geometry":{"type":"LineString","coordinates":[[12.085296,46.699015],[12.085319,46.698971],[12.085479,46.698946],[12.085465,46.69887],[12.085512,46.698688],[12.085671,46.698605],[12.085812,46.698532],[12.085895,46.698503],[12.086096,46.698503],[12.086324,46.698529],[12.086559,46.698618],[12.086751,46.698763],[12.086813,46.698868],[12.086836,46.699094],[12.086812,46.699214],[12.086893,46.69944],[12.086965,46.699521],[12.087315,46.699729],[12.087426,46.699852],[12.087547,46.699939],[12.08794,46.70015],[12.088078,46.700242],[12.088213,46.700152],[12.088106,46.70006],[12.087793,46.699707],[12.087719,46.699578],[12.087686,46.69904],[12.087555,46.698828],[12.087512,46.698531],[12.087576,46.698391],[12.087691,46.69838],[12.087735,46.698182],[12.087766,46.698062],[12.087852,46.697993],[12.087993,46.697938],[12.088174,46.697912],[12.088388,46.697473],[12.088333,46.697332],[12.088181,46.69722],[12.08812,46.697079],[12.087916,46.69694],[12.087721,46.696719],[12.087705,46.696415],[12.088077,46.69597],[12.088135,46.695733],[12.088028,46.695524],[12.088011,46.695434],[12.088085,46.695209],[12.08819,46.695111],[12.088326,46.694769],[12.088317,46.694719],[12.088373,46.694665],[12.088406,46.694552],[12.088538,46.694277],[12.088528,46.694128],[12.088586,46.694091],[12.088558,46.693945],[12.088558,46.693944],[12.088442,46.693839],[12.088407,46.694156],[12.088347,46.694306],[12.08824,46.69414],[12.087901,46.693831],[12.087832,46.693679],[12.087669,46.693618],[12.087609,46.693606],[12.087553,46.693591],[12.087408,46.693453],[12.087128,46.693292],[12.086953,46.693101],[12.086953,46.693101],[12.086737,46.692239],[12.086786,46.692042],[12.087033,46.691675],[12.087067,46.691535],[12.087057,46.691479],[12.086917,46.691076],[12.08649,46.690855],[12.086357,46.690663],[12.086297,46.69034],[12.086171,46.690074],[12.086158,46.689916],[12.086201,46.68971],[12.086178,46.689608],[12.086115,46.689507],[12.086084,46.689361],[12.086037,46.689268],[12.086037,46.689268],[12.085846,46.689195],[12.085473,46.689157],[12.085182,46.689182],[12.084814,46.689176],[12.084675,46.689123],[12.084398,46.689121],[12.08415,46.689131],[12.084003,46.689099],[12.083777,46.689095],[12.083577,46.689151],[12.083169,46.689154],[12.082727,46.689125],[12.082487,46.689129],[12.082183,46.689102],[12.081747,46.689128],[12.081598,46.689181],[12.081598,46.689181],[12.081247,46.689398],[12.081184,46.689469],[12.081161,46.689556],[12.081246,46.689697],[12.081222,46.690008],[12.081172,46.690124],[12.081145,46.690248],[12.08111,46.690415],[12.080951,46.690792],[12.080874,46.690873],[12.080783,46.690913],[12.08063,46.690931],[12.080492,46.690922],[12.080391,46.690917],[12.080375,46.691019],[12.080346,46.691261],[12.080346,46.691262],[12.08043,46.691383],[12.080488,46.69143],[12.080702,46.691465],[12.080852,46.691513],[12.080984,46.691582],[12.081195,46.691764],[12.081744,46.692314],[12.081855,46.692461],[12.081942,46.692629],[12.082044,46.692926],[12.082097,46.693019],[12.08228,46.693166],[12.082371,46.693265],[12.082421,46.693389],[12.082575,46.693546],[12.083016,46.693918],[12.083101,46.694088],[12.083401,46.694494],[12.083434,46.694621],[12.083365,46.694736],[12.08332,46.694907],[12.083348,46.695116],[12.083313,46.695216],[12.083294,46.695413],[12.083326,46.695492],[12.083266,46.695767],[12.083275,46.695932],[12.083211,46.696187],[12.083205,46.696286],[12.083259,46.696505],[12.083236,46.6967],[12.083304,46.696821],[12.083385,46.696864],[12.083398,46.697061],[12.083426,46.697258],[12.083549,46.697489],[12.083764,46.697712],[12.083852,46.697883],[12.083974,46.698017],[12.084091,46.698145],[12.084182,46.698171],[12.084357,46.698188],[12.084414,46.698251],[12.084632,46.698399],[12.084845,46.69859],[12.085229,46.698812],[12.085295,46.698916],[12.085319,46.698971],[12.085296,46.699015]]}}
