{"type":"Feature","properties":{"proposalId":"tre-cime-monte-paterno-101-104-105","name":"Extended Tre Cime and Monte Paterno circuit — trails 101/104/105","sourceUrl":"https://www.trecimetrek.it/wp-content/uploads/geodata/gpx/gir_del_tre.gpx","sourceAuthority":"official-destination-route-portal","retrievedAt":"2026-08-18","computedDistanceKm":14.2,"pointCount":2992,"closureDistanceM":43,"rawGpxElevation":{"pointCount":2992,"minimumM":2170,"maximumM":2564,"rawAscentM":994},"geometryAssessment":{"version":"geometry-v1","status":"passed","isClosed":true,"closureDistanceM":43,"distanceKm":14.2,"maxSegmentM":33,"pointCount":2992,"issues":[]},"humanGate":"geometry-approval","publicMutationAllowed":false},"geometry":{"type":"LineString","coordinates":[[12.29642111,46.61222805],[12.29642573,46.61225042],[12.29643035,46.61227279],[12.29644259,46.61231294],[12.29645482,46.61235309],[12.2964638,46.61239333],[12.29647576,46.61242898],[12.29648446,46.61246473],[12.29649642,46.61250039],[12.29650512,46.61253614],[12.29651695,46.61256955],[12.29652565,46.6126053],[12.29653761,46.61264095],[12.29654971,46.61267886],[12.29656181,46.61271676],[12.29657404,46.61275691],[12.29658641,46.6127993],[12.29659429,46.61282157],[12.29660231,46.61284609],[12.29661428,46.61288175],[12.2966261,46.61291516],[12.29664118,46.61294847],[12.29665342,46.61298862],[12.29665506,46.61301557],[12.29665004,46.61304047],[12.29664176,46.61306546],[12.29663335,46.6130882],[12.29661,46.61313388],[12.29660186,46.61316111],[12.29660037,46.61319041],[12.29659861,46.61321521],[12.29660324,46.61323757],[12.29661438,46.61325975],[12.29663544,46.6132839],[12.29669303,46.61331824],[12.29672658,46.61333302],[12.29676652,46.61334537],[12.29681297,46.61335753],[12.29685602,46.61336754],[12.29689908,46.61337754],[12.296942,46.61338531],[12.29698179,46.61339541],[12.29702145,46.61340326],[12.29705772,46.61340897],[12.29709738,46.61341682],[12.29713378,46.61342477],[12.29717344,46.61343263],[12.2972131,46.61344049],[12.29725289,46.61345059],[12.29729269,46.61346069],[12.29733574,46.6134707],[12.29737907,46.6134852],[12.29742892,46.61349951],[12.29748244,46.61352047],[12.29752319,46.61354629],[12.29756706,46.61356978],[12.29762723,46.61359279],[12.2976601,46.61359634],[12.29769963,46.61360195],[12.29775191,46.61360269],[12.29780108,46.61360577],[12.29784685,46.6136067],[12.29790579,46.6136095],[12.29797207,46.61362559],[12.29803496,46.61363953],[12.29809431,46.61364906],[12.29815041,46.61365869],[12.29820962,46.61366599],[12.29827196,46.61367094],[12.29830157,46.61367458],[12.29833756,46.61367579],[12.29837355,46.613677],[12.29841294,46.61368037],[12.2985368,46.61367679],[12.29857578,46.61367342],[12.2986115,46.61367014],[12.29865047,46.61366676],[12.29871851,46.61365805],[12.2987541,46.61365252],[12.29886125,46.61364268],[12.29894274,46.61364033],[12.29898525,46.61364135],[12.29903115,46.61364452],[12.2990901,46.61364732],[12.29914279,46.6136548],[12.29924167,46.61366995],[12.29928799,46.61367986],[12.29933756,46.61368968],[12.29939053,46.61370165],[12.29951603,46.61372503],[12.29957226,46.6137369],[12.29962863,46.61375103],[12.29968174,46.61376524],[12.29973172,46.6137818],[12.29977831,46.61379621],[12.29982504,46.61381286],[12.2998685,46.6138296],[12.29991537,46.6138485],[12.29996209,46.61386515],[12.30005582,46.61390295],[12.30010594,46.61392175],[12.30015932,46.61394046],[12.30021596,46.61395907],[12.30027926,46.61397975],[12.30032245,46.613992],[12.30036238,46.61400435],[12.30040232,46.61401669],[12.30043886,46.61402689],[12.30047539,46.61403708],[12.30051193,46.61404728],[12.30054521,46.61405757],[12.30058175,46.61406776],[12.30061489,46.61407581],[12.30065143,46.614086],[12.3006847,46.61409629],[12.3007245,46.61410639],[12.30076104,46.61411659],[12.3008041,46.61412659],[12.30084729,46.61413884],[12.30089374,46.614151],[12.30094699,46.61416747],[12.301013,46.61417906],[12.30106556,46.61418429],[12.30111472,46.61418737],[12.30115737,46.61419064],[12.30120328,46.61419381],[12.30124593,46.61419708],[12.30129183,46.61420026],[12.301341,46.61420334],[12.30139696,46.61421072],[12.30144952,46.61421595],[12.3014957,46.61422362],[12.30162446,46.6142469],[12.30167064,46.61425456],[12.30171994,46.61425989],[12.30177563,46.61426278],[12.30183769,46.61426324],[12.30200719,46.61425834],[12.30206246,46.61425449],[12.30211122,46.61425083],[12.30221185,46.61424118],[12.30230923,46.61423161],[12.30236111,46.61422561],[12.30265066,46.61420825],[12.30270267,46.61420449],[12.30301233,46.61419554],[12.30305144,46.61419441],[12.30309395,46.61419543],[12.30313633,46.61419421],[12.30317884,46.61419523],[12.30322461,46.61419616],[12.3032735,46.61419474],[12.30332253,46.61419558],[12.30337821,46.61419847],[12.30343362,46.61419687],[12.30348591,46.61419761],[12.30353155,46.61419629],[12.30357732,46.61419721],[12.30362309,46.61419814],[12.30367211,46.61419897],[12.30372427,46.61419747],[12.30378321,46.61420026],[12.30381907,46.61419922],[12.30385818,46.61419809],[12.30389403,46.61419706],[12.30392663,46.61419612],[12.30398516,46.61419217],[12.30407588,46.61418055],[12.30411472,46.61417493],[12.30417923,46.61416181],[12.30423722,46.61414888],[12.30428841,46.61413165],[12.30434897,46.6141074],[12.30438686,46.61408606],[12.30448136,46.61402932],[12.30454097,46.61398935],[12.30457233,46.61396819],[12.30460682,46.61394469],[12.30465338,46.6139051],[12.30469357,46.61386793],[12.30472737,46.6138332],[12.30476117,46.61379848],[12.30479498,46.61376375],[12.30482864,46.61372677],[12.30494336,46.6136267],[12.30502036,46.61360423],[12.30511759,46.61359241],[12.3051798,46.61359512],[12.30524227,46.61360231],[12.30530489,46.61361175],[12.30537076,46.61362109],[12.30540363,46.61362464],[12.30543962,46.61362585],[12.30547561,46.61362706],[12.30551812,46.61362808],[12.30556674,46.61362218],[12.30561196,46.61361412],[12.30565379,46.61360391],[12.30573404,46.61358134],[12.30577573,46.61356888],[12.30597985,46.61354272],[12.30611674,46.61353876],[12.30616265,46.61354194],[12.30621181,46.61354501],[12.30627089,46.61355005],[12.30632305,46.61354855],[12.30637194,46.61354713],[12.30642069,46.61354347],[12.30647583,46.61353738],[12.3065144,46.61352726],[12.3065497,46.61351724],[12.30661054,46.61349748],[12.30671347,46.613472],[12.30679822,46.61346955],[12.30683462,46.61347749],[12.30687428,46.61348535],[12.30692046,46.61349301],[12.30697288,46.61349599],[12.30701893,46.61350141],[12.30706483,46.61350458],[12.30712065,46.61350972],[12.30715991,46.61351083],[12.3071959,46.61351204],[12.3072289,46.61351783],[12.30727196,46.61352784],[12.30732479,46.61353756],[12.30736799,46.61354981],[12.30741458,46.61356421],[12.3074681,46.61358516],[12.30752529,46.61361276],[12.30757895,46.61363596],[12.3076326,46.61365915],[12.30768287,46.6136802],[12.30773313,46.61370125],[12.30778339,46.61372229],[12.3078403,46.6137454],[12.30790727,46.61377271],[12.30794409,46.61378739],[12.30798076,46.61379983],[12.30804746,46.61382265],[12.30807748,46.61383303],[12.30811402,46.61384322],[12.30815055,46.61385342],[12.30819701,46.61386557],[12.30825039,46.61388428],[12.30829386,46.61390102],[12.30833108,46.61392244],[12.30837211,46.61395276],[12.3083997,46.61397671],[12.30842416,46.614003],[12.3084421,46.61402948],[12.30845733,46.61406504],[12.30847173,46.61408713],[12.30848003,46.61411614],[12.30847842,46.61414318],[12.30847138,46.61418839],[12.30847642,46.61421749],[12.30848513,46.61425324],[12.30850008,46.61428431],[12.30851504,46.61431538],[12.30852985,46.6143442],[12.30854467,46.61437302],[12.30855949,46.61440184],[12.30857784,46.61443506],[12.30859321,46.61447287],[12.30860137,46.61449963],[12.30860953,46.6145264],[12.30861444,46.61455325],[12.30862246,46.61457777],[12.30862709,46.61460014],[12.30863186,46.61462475],[12.30863975,46.61464702],[12.30865826,46.61473649],[12.30868234,46.61481005],[12.30869064,46.61483906],[12.3087022,46.61486797],[12.30871417,46.61490363],[12.30874408,46.61496576],[12.30876202,46.61499224],[12.3087801,46.61502097],[12.30880143,46.6150496],[12.30882305,46.61508273],[12.30884805,46.615118],[12.30887292,46.61515104],[12.30890716,46.61517704],[12.30894452,46.61520071],[12.30898161,46.61521989],[12.30902508,46.61523663],[12.30906869,46.61525562],[12.30911257,46.6152791],[12.30915672,46.61530707],[12.30919422,46.61533299],[12.30922846,46.615359],[12.30925917,46.61538061],[12.30929001,46.61540446],[12.30931759,46.61542842],[12.30934531,46.61545461],[12.30937317,46.61548306],[12.3094047,46.61551815],[12.30943297,46.61555333],[12.30945798,46.6155886],[12.30948285,46.61562164],[12.30950432,46.61565251],[12.30952594,46.61568564],[12.30954727,46.61571427],[12.30956549,46.61574524],[12.30958357,46.61577397],[12.30960178,46.61580495],[12.30961674,46.61583601],[12.30963496,46.61586699],[12.30967166,46.61593342],[12.30969015,46.61596889],[12.30970878,46.6160066],[12.3097308,46.61604646],[12.3097459,46.61607978],[12.30975433,46.61611103],[12.30976263,46.61614004],[12.30977272,46.61619825],[12.30978102,46.61622726],[12.30978959,46.61626077],[12.30980482,46.61629633],[12.30982684,46.61633619],[12.30985498,46.61636913],[12.30988324,46.61640431],[12.30991192,46.61644623],[12.30992417,46.61648637],[12.30994159,46.61655787],[12.30996375,46.61659998],[12.30997816,46.61662206],[12.30999583,46.61664405],[12.31003402,46.6166812],[12.31007206,46.6167161],[12.31011636,46.61674631],[12.31015739,46.61677663],[12.31020182,46.61680909],[12.31024965,46.61684371],[12.31029789,46.61688506],[12.31034287,46.61692651],[12.31038445,46.6169658],[12.31042263,46.61700295],[12.31045742,46.61703794],[12.31049547,46.61707284],[12.31053054,46.61711233],[12.31056886,46.61715172],[12.31058666,46.61717595],[12.31061099,46.6172],[12.31064266,46.61723733],[12.31067093,46.61727251],[12.31069566,46.6173033],[12.3107204,46.61733408],[12.31074527,46.61736711],[12.31077015,46.61740014],[12.31079516,46.61743542],[12.31082384,46.61747734],[12.31083512,46.61750176],[12.31084627,46.61752394],[12.31085553,46.61756867],[12.31086466,46.61761116],[12.31087594,46.61763558],[12.31091265,46.61770202],[12.31093753,46.61773505],[12.31096878,46.61776565],[12.31101009,46.61780045],[12.31104365,46.61781523],[12.3110772,46.61783001],[12.31113454,46.61785985],[12.31118549,46.61789212],[12.31124691,46.61793534],[12.31127789,46.61796144],[12.31130547,46.6179854],[12.31132994,46.61801169],[12.31137207,46.61805997],[12.31139639,46.61808401],[12.31142738,46.61811012],[12.31146488,46.61813603],[12.31150211,46.61815745],[12.31153933,46.61817887],[12.31160672,46.61821292],[12.31164354,46.61822761],[12.31168035,46.61824229],[12.31172369,46.61825678],[12.31177368,46.61827334],[12.31183387,46.61829634],[12.3118749,46.61832665],[12.31190956,46.6183594],[12.31194095,46.61839224],[12.31196582,46.61842527],[12.31199763,46.61846485],[12.31200905,46.61849152],[12.31201708,46.61851604],[12.31202919,46.61855394],[12.31203437,46.61858529],[12.31203331,46.61862132],[12.31202517,46.61864856],[12.31201364,46.61867364],[12.31195558,46.61879233],[12.31195084,46.61882171],[12.31193608,46.61890089],[12.31193487,46.61893468],[12.31193367,46.61896846],[12.31193247,46.61900225],[12.3119314,46.61903828],[12.31193047,46.61907656],[12.31192656,46.61911942],[12.31192141,46.61914207],[12.3119164,46.61916697],[12.31190596,46.61921002],[12.31187384,46.61932571],[12.31186086,46.61943409],[12.31186456,46.61949473],[12.311873,46.61952599],[12.31188769,46.61955256],[12.31192358,46.61960552],[12.3119384,46.61963434],[12.31195336,46.61966541],[12.31196207,46.61970116],[12.31196371,46.61972811],[12.3119655,46.61975731],[12.31196525,46.61980682],[12.3119635,46.61983162],[12.31196161,46.61985418],[12.31195972,46.61987673],[12.31195784,46.61989929],[12.31194891,46.61996705],[12.3119439,46.61999194],[12.31193744,46.62010013],[12.31193311,46.62013626],[12.31193884,46.62017659],[12.31194104,46.62021253],[12.31194635,46.62024613],[12.31195465,46.62027514],[12.31195983,46.62030649],[12.3119714,46.6203354],[12.31198948,46.62036413],[12.31201082,46.62039276],[12.31204221,46.6204256],[12.31208692,46.62046256],[12.3121539,46.62048987],[12.31219669,46.62049538],[12.31223608,46.62049874],[12.31227534,46.62049985],[12.31232166,46.62050976],[12.31236826,46.62052416],[12.31244245,46.62056251],[12.31249556,46.62057672],[12.31255452,46.62057951],[12.31266535,46.6205763],[12.31272797,46.62058573],[12.31277444,46.62059788],[12.31281777,46.62061238],[12.31285799,46.62062921],[12.31289481,46.6206439],[12.31293163,46.62065858],[12.3129717,46.62067317],[12.31301803,46.62068307],[12.3130706,46.6206883],[12.31313906,46.62068632],[12.31320072,46.62068003],[12.31325559,46.62066944],[12.31331018,46.62065435],[12.31336152,46.62063937],[12.31341923,46.62062194],[12.31351267,46.62060123],[12.31360978,46.62058717],[12.3136652,46.62058556],[12.31372062,46.62058395],[12.31378568,46.62057982],[12.3138309,46.62057175],[12.31386975,46.62056613],[12.31390845,46.62055826],[12.31397935,46.6205427],[12.31405676,46.62052695],[12.31410538,46.62052104],[12.31412793,46.62051589],[12.31415428,46.62051963],[12.314204,46.62053169],[12.31424137,46.62055535],[12.31427249,46.6205837],[12.31430729,46.62061869],[12.31433175,46.62064498],[12.31435296,46.62067137],[12.31437403,46.62069551],[12.31439184,46.62071974],[12.31440638,46.62074407],[12.31442107,46.62077065],[12.31443589,46.62079947],[12.31445425,46.62083268],[12.31461477,46.62100128],[12.31465485,46.62101587],[12.3146986,46.6210371],[12.31473542,46.62105178],[12.3147721,46.62106422],[12.31480539,46.62107451],[12.3148418,46.62108245],[12.31487807,46.62108815],[12.3149142,46.6210916],[12.31495658,46.62109037],[12.31499909,46.62109139],[12.31506131,46.62109408],[12.31512081,46.62110586],[12.31515354,46.62110716],[12.3151894,46.62110612],[12.31535631,46.62105853],[12.31539827,46.62105056],[12.31547284,46.62104164],[12.31557321,46.62102748],[12.31564139,46.621021],[12.31565742,46.62101604],[12.31567372,46.62101557],[12.31577886,46.62102602],[12.31582477,46.62102918],[12.31587041,46.62102786],[12.31591577,46.62102204],[12.31596045,46.621005],[12.31599898,46.62094088],[12.31602805,46.62093553],[12.31606744,46.62093889],[12.31609894,46.62091998],[12.31613099,46.62091005],[12.31617457,46.62087503],[12.31624882,46.62080762],[12.31648514,46.62056001],[12.31659742,46.6204735],[12.31673021,46.62040215],[12.31683995,46.62038096],[12.31703564,46.62032353],[12.31706769,46.6203136],[12.31710965,46.62030563],[12.31714184,46.62029795],[12.31715121,46.62029092],[12.31716425,46.62029055],[12.31726746,46.62026955],[12.31731581,46.62025915],[12.3173704,46.62024406],[12.3174053,46.6202273],[12.31744006,46.62020829],[12.31749681,46.62017514],[12.31755017,46.62013984],[12.31759687,46.62010248],[12.31768687,46.62002562],[12.31792215,46.61986804],[12.31808291,46.61977337],[12.31819981,46.61970922],[12.3182696,46.61967569],[12.31834252,46.61963983],[12.31838095,46.61962746],[12.3184585,46.61961396],[12.31854325,46.6196115],[12.31859256,46.61961681],[12.31863535,46.61962232],[12.31867488,46.61962792],[12.31871427,46.61963128],[12.31875027,46.61963249],[12.31878626,46.61963369],[12.31891339,46.61963],[12.31895224,46.61962437],[12.3189908,46.61961425],[12.31902271,46.61960207],[12.31906087,46.61958521],[12.31908756,46.61948769],[12.31915144,46.61935758],[12.31920439,46.61931554],[12.3192272,46.61931488],[12.31927298,46.6193158],[12.31931875,46.61931672],[12.31936154,46.61932223],[12.31941112,46.61933204],[12.31943449,46.61934036],[12.31945175,46.61935561],[12.31948044,46.61939752],[12.31950247,46.61943738],[12.31952437,46.619475],[12.31956298,46.61951888],[12.31958391,46.61954077],[12.3196081,46.61956257],[12.31966925,46.61960129],[12.31968596,46.61960756],[12.31970281,46.61961607],[12.31981066,46.61961744],[12.31978637,46.61964739],[12.31979546,46.61963588],[12.31984151,46.61964129],[12.31989408,46.61964651],[12.31994678,46.61965398],[12.32000656,46.61967025],[12.32006987,46.61969091],[12.32012354,46.6197141],[12.32017381,46.61973514],[12.32022422,46.61975843],[12.32027123,46.61977956],[12.3203249,46.61980275],[12.32038169,46.6198236],[12.3204484,46.61984642],[12.3204882,46.61985651],[12.32052461,46.61986445],[12.320564,46.61986781],[12.32061005,46.61987322],[12.32065256,46.61987423],[12.32069508,46.61987525],[12.32073433,46.61987636],[12.32077359,46.61987747],[12.32080958,46.61987867],[12.32084544,46.61987763],[12.32088144,46.61987883],[12.32091729,46.61987779],[12.32095329,46.619879],[12.32098928,46.6198802],[12.32102514,46.61987916],[12.32106114,46.61988036],[12.32110039,46.61988147],[12.32113979,46.61988483],[12.3211823,46.61988584],[12.32122835,46.61989125],[12.32128078,46.61989423],[12.32132995,46.6198973],[12.32142178,46.61990363],[12.32146457,46.61990914],[12.32151062,46.61991455],[12.3215602,46.61992436],[12.32161644,46.61993623],[12.32166942,46.61994819],[12.32171589,46.61996034],[12.32175923,46.61997483],[12.32179931,46.61998941],[12.32184278,46.62000615],[12.32188286,46.62002073],[12.3219296,46.62003738],[12.32198626,46.62005598],[12.32203258,46.62006588],[12.32207551,46.62007363],[12.32211531,46.62008373],[12.32216531,46.62010028],[12.32221884,46.62012122],[12.32226572,46.62014011],[12.32231259,46.620159],[12.32235309,46.62018032],[12.32239358,46.62020164],[12.32243421,46.62022521],[12.32247511,46.62025327],[12.32251956,46.62028573],[12.32255054,46.62031183],[12.32257814,46.62033578],[12.32260247,46.62035982],[12.32262354,46.62038396],[12.32264149,46.62041044],[12.32266256,46.62043458],[12.32268391,46.62046321],[12.32271205,46.62049614],[12.32273312,46.62052028],[12.32275093,46.62054451],[12.32278615,46.62058624],[12.32280382,46.62060822],[12.32282163,46.62063246],[12.32283619,46.62065678],[12.32285753,46.62068541],[12.32287645,46.62072762],[12.32288884,46.62077001],[12.32289458,46.62081034],[12.32290577,46.62088652],[12.32291803,46.62092666],[12.32293993,46.62096428],[12.32297826,46.62100366],[12.32301875,46.62102498],[12.32307146,46.62103245],[12.32312715,46.62103533],[12.32318381,46.62105394],[12.32321737,46.62106871],[12.32325107,46.62108573],[12.32331154,46.62111322],[12.32336874,46.62114081],[12.32342269,46.62116849],[12.3234765,46.62119393],[12.32353058,46.62122386],[12.32358806,46.62125593],[12.3236556,46.62129222],[12.3237067,46.62132674],[12.32375183,46.62137042],[12.32377644,46.62139896],[12.32379765,46.62142534],[12.32383355,46.6214783],[12.32385136,46.62150253],[12.32386619,46.62153135],[12.32388428,46.62156008],[12.32390278,46.62159554],[12.32391095,46.6216223],[12.32391899,46.62164682],[12.32392376,46.62167143],[12.32392665,46.6217186],[12.32393129,46.62174096],[12.32394272,46.62176763],[12.32395755,46.62179645],[12.32399533,46.62182685],[12.32404629,46.62185912],[12.32409455,46.62190047],[12.32411548,46.62192236],[12.32414009,46.6219509],[12.32415845,46.62198411],[12.3241703,46.62201752],[12.32417875,46.62204877],[12.32418719,46.62208003],[12.32419757,46.62214273],[12.32420941,46.62217614],[12.32424669,46.62225155],[12.32426831,46.62228467],[12.32429292,46.62231321],[12.32431753,46.62234174],[12.32433888,46.62237037],[12.32436362,46.62240115],[12.32438525,46.62243428],[12.32440729,46.62247414],[12.32441885,46.62250305],[12.3244352,46.62255658],[12.32443997,46.62258119],[12.32445471,46.62266176],[12.32447068,46.62276255],[12.32447261,46.62279399],[12.32446503,46.62283021],[12.32440019,46.6229446],[12.32435542,46.62301341],[12.32430698,46.62307557],[12.32427943,46.62310562],[12.32422419,46.62316348],[12.32415917,46.62322162],[12.32408437,46.62328005],[12.32404392,46.62331272],[12.32400021,46.6233455],[12.32403662,46.62335344],[12.32407303,46.62336138],[12.3241093,46.62336707],[12.32415563,46.62337698],[12.32419828,46.62338024],[12.32423428,46.62338144],[12.32427367,46.62338479],[12.32432,46.6233947],[12.32437299,46.62340666],[12.32441959,46.62342105],[12.3244662,46.62343544],[12.32450628,46.62345003],[12.32454962,46.62346452],[12.32459623,46.62347891],[12.32464595,46.62349097],[12.32470546,46.62350274],[12.32474485,46.62350609],[12.32478425,46.62350944],[12.32482025,46.62351065],[12.32485624,46.62351185],[12.3248921,46.62351081],[12.3249247,46.62350986],[12.32505496,46.62350382],[12.32509096,46.62350502],[12.3251237,46.62350632],[12.32515671,46.62351211],[12.32519299,46.6235178],[12.3252294,46.62352574],[12.32526934,46.62353808],[12.32530956,46.62355491],[12.32535034,46.62358073],[12.32539111,46.62360654],[12.32542862,46.62363245],[12.3254626,46.62365396],[12.32549345,46.62367781],[12.32552757,46.62370157],[12.32564649,46.62377686],[12.32570751,46.62381334],[12.32576513,46.62384766],[12.32581936,46.62387983],[12.32587344,46.62390976],[12.32592413,46.62393754],[12.32598162,46.62396961],[12.32603924,46.62400394],[12.32610692,46.62404247],[12.32637378,46.6241337],[12.32639362,46.62413763],[12.32641685,46.6241437],[12.32644647,46.62414734],[12.32648288,46.62415528],[12.32652554,46.62415854],[12.32656493,46.62416189],[12.32660419,46.624163],[12.3266535,46.62416831],[12.32670906,46.62416895],[12.3267581,46.62416977],[12.32680388,46.62417069],[12.32684966,46.6241716],[12.32689543,46.62417252],[12.32694135,46.62417569],[12.32699053,46.62417875],[12.32704976,46.62418603],[12.32708589,46.62418948],[12.32711579,46.62419761],[12.32717571,46.62421611],[12.3272325,46.62423696],[12.32726239,46.62424509],[12.3273022,46.62425518],[12.32735152,46.6242605],[12.32740042,46.62425907],[12.3274462,46.62425999],[12.32750231,46.62426961],[12.32753573,46.62428213],[12.32757297,46.62430355],[12.32761374,46.62432936],[12.32765126,46.62435527],[12.32768211,46.62437912],[12.32771609,46.62440063],[12.32774695,46.62442449],[12.32778419,46.6244459],[12.32782469,46.62446722],[12.3278751,46.62449051],[12.32791845,46.62450499],[12.3279645,46.6245104],[12.32801028,46.62451132],[12.32806896,46.62450961],[12.32812737,46.62450341],[12.32818182,46.62448607],[12.32821929,46.62445798],[12.32827466,46.62440237],[12.32837186,46.62433654],[12.32848238,46.62427482],[12.32851416,46.62426039],[12.32855231,46.62424353],[12.32869515,46.62417637],[12.32881045,46.62413926],[12.32890701,46.6241162],[12.32896472,46.62409876],[12.32901835,46.62406795],[12.32910945,46.62400905],[12.32917327,46.62398469],[12.32921468,46.62396773],[12.32936216,46.62392293],[12.32944283,46.62390708],[12.32949146,46.62390116],[12.3295534,46.62389936],[12.32961263,46.62390663],[12.3296686,46.623914],[12.32973366,46.62390986],[12.32987191,46.62387433],[12.32991374,46.62386411],[12.32999726,46.62384143],[12.3300968,46.62381378],[12.33014474,46.62379663],[12.33019267,46.62377948],[12.33023423,46.62376477],[12.33027238,46.62374791],[12.33045462,46.6236841],[12.33048001,46.62367211],[12.33057386,46.62365812],[12.33062914,46.62365426],[12.33068116,46.62365049],[12.3307302,46.62365131],[12.33077937,46.62365438],[12.33082869,46.62365969],[12.3308848,46.62366931],[12.3309443,46.62368107],[12.33098397,46.62368892],[12.33102066,46.62370135],[12.33108453,46.62373099],[12.33114827,46.62375838],[12.33118509,46.62377306],[12.33122844,46.62378755],[12.33126159,46.62379558],[12.3312946,46.62380137],[12.33135723,46.62381079],[12.33141646,46.62381807],[12.33147556,46.62382309],[12.33153451,46.62382587],[12.33159374,46.62383315],[12.33165637,46.62384257],[12.33169265,46.62384826],[12.33172906,46.6238562],[12.33177213,46.6238662],[12.33180895,46.62388087],[12.33187622,46.62391266],[12.33194335,46.62394221],[12.3319833,46.62395454],[12.33203303,46.62396659],[12.33207569,46.62396985],[12.3321182,46.62397086],[12.33215719,46.62396747],[12.33227372,46.62395058],[12.3323616,46.62394576],[12.3324397,46.62394124],[12.33251454,46.6239368],[12.33254714,46.62393585],[12.33258286,46.62393256],[12.33289582,46.62392343],[12.33293834,46.62392444],[12.3329905,46.62392292],[12.33303968,46.62392599],[12.33308587,46.62393364],[12.33313913,46.62395009],[12.33318234,46.62396233],[12.33322243,46.62397691],[12.33325912,46.62398934],[12.3332958,46.62400177],[12.33333249,46.6240142],[12.33336932,46.62402888],[12.3334094,46.62404346],[12.33345615,46.6240601],[12.33350275,46.62407449],[12.33354596,46.62408673],[12.33359202,46.62409213],[12.3336473,46.62408827],[12.33369891,46.62407777],[12.33374725,46.62406735],[12.33383784,46.62405346],[12.33392843,46.62403957],[12.33403519,46.62402295],[12.33409671,46.62401441],[12.33415567,46.62401719],[12.33421136,46.62402006],[12.33424424,46.62402361],[12.33428024,46.62402481],[12.33436826,46.62402224],[12.33444622,46.62401546],[12.33456275,46.62399856],[12.33461124,46.6239904],[12.33466271,46.62397764],[12.33484375,46.62394761],[12.33499995,46.62393855],[12.33503595,46.62393975],[12.33506896,46.62394554],[12.33510225,46.62395582],[12.33514206,46.62396591],[12.33517522,46.62397394],[12.33520837,46.62398197],[12.33526815,46.62399823],[12.33533106,46.62401214],[12.3353672,46.62401559],[12.33540659,46.62401894],[12.33543919,46.62401799],[12.33547193,46.62401928],[12.33553075,46.62401981],[12.33593228,46.62401709],[12.33594454,46.62405724],[12.33594919,46.6240796],[12.33595736,46.62410636],[12.33596311,46.6241467],[12.33595554,46.62418292],[12.33591799,46.62426277],[12.33588081,46.62429535],[12.33582975,46.62431484],[12.33576836,46.62432564],[12.33570413,46.62434326],[12.3356494,46.62435611],[12.33560105,46.62436652],[12.33555243,46.62437244],[12.33550707,46.62437826],[12.33536106,46.62439378],[12.33530959,46.62440653],[12.33527823,46.62442769],[12.33528356,46.62446129],[12.33531671,46.62446932],[12.33537838,46.62446302],[12.3354372,46.62446356],[12.33548637,46.62446662],[12.33553582,46.62447418],[12.33559859,46.62448585],[12.3356615,46.62449976],[12.33571789,46.62451386],[12.33577753,46.62452787],[12.33580729,46.62453375],[12.33584682,46.62453935],[12.3358926,46.62454026],[12.33593484,46.62453678],[12.3360253,46.62452064],[12.33609605,46.62450283],[12.33615702,46.6244853],[12.33621106,46.62446122],[12.33626441,46.62442591],[12.33629847,46.62439566],[12.33642528,46.62433346],[12.33646004,46.62431445],[12.33649493,46.62429768],[12.33663956,46.6242597],[12.33668152,46.62425173],[12.33672661,46.62424141],[12.33678189,46.62423755],[12.33683066,46.62423387],[12.33687616,46.62423029],[12.33696744,46.62422763],[12.33706551,46.62422927],[12.33712461,46.62423429],[12.33716387,46.62423539],[12.33720312,46.6242365],[12.33723912,46.6242377],[12.337272,46.62424124],[12.33733803,46.62425281],[12.3374053,46.62428459],[12.33744594,46.62430816],[12.33748318,46.62432957],[12.33755087,46.6243681],[12.33758797,46.62438726],[12.33762508,46.62440643],[12.33766232,46.62442784],[12.33770948,46.62445122],[12.33777689,46.62448525],[12.3379192,46.62456884],[12.33796012,46.6245969],[12.33800471,46.6246316],[12.33804264,46.62466424],[12.33807406,46.62469707],[12.33809909,46.62473234],[12.33812793,46.6247765],[12.33815844,46.62484761],[12.33817653,46.62487633],[12.33821759,46.62490664],[12.33826503,46.6249345],[12.33835283,46.62498144],[12.33840991,46.62500677],[12.33844646,46.62501695],[12.33847961,46.62502498],[12.33851575,46.62502843],[12.33855854,46.62503393],[12.3386209,46.62503886],[12.33868408,46.62505726],[12.33872417,46.62507184],[12.338761,46.62508652],[12.33880081,46.6250966],[12.33885013,46.62510191],[12.33891845,46.62509767],[12.33898053,46.6250981],[12.33903963,46.62510313],[12.33907264,46.62510891],[12.33910919,46.62511909],[12.33916232,46.62513329],[12.33920879,46.62514543],[12.33925838,46.62515524],[12.33932115,46.6251669],[12.33936069,46.6251725],[12.33939683,46.62517594],[12.33943595,46.6251748],[12.33948145,46.62517122],[12.33953618,46.62515837],[12.33963655,46.62514418],[12.33969863,46.62514462],[12.33981925,46.6251411],[12.33988091,46.62513479],[12.33994896,46.62512605],[12.34015213,46.62508412],[12.34033358,46.62506081],[12.34037909,46.62505723],[12.34042161,46.62505824],[12.34046086,46.62505934],[12.34050338,46.62506035],[12.34054604,46.6250636],[12.3405921,46.62506901],[12.34064467,46.62507422],[12.34069711,46.62507719],[12.34079546,46.62508331],[12.34084124,46.62508422],[12.34093252,46.62508156],[12.34098115,46.62507563],[12.34103629,46.62506952],[12.3411137,46.62505376],[12.34117793,46.62503613],[12.34131902,46.62499375],[12.34137334,46.62497417],[12.34142127,46.62495701],[12.34146594,46.62493996],[12.34151089,46.62492739],[12.34171621,46.62486739],[12.34180243,46.62483562],[12.34184412,46.62482315],[12.34189573,46.62481264],[12.34193755,46.62480241],[12.34198618,46.62479649],[12.34203008,46.62481996],[12.34200621,46.62485666],[12.34198533,46.62488877],[12.34191249,46.62497865],[12.34187398,46.62504278],[12.34185365,46.62508387],[12.34183727,46.6251361],[12.34182617,46.62516793],[12.34182159,46.62519956],[12.34179314,46.6252679],[12.34179154,46.62529495],[12.34177856,46.62534933],[12.34177682,46.62537413],[12.34177494,46.62539668],[12.34177973,46.62542129],[12.34178763,46.62544356],[12.34179907,46.62547023],[12.34182029,46.62549661],[12.3418585,46.62553374],[12.34188083,46.62557809],[12.34187028,46.6256189],[12.34187305,46.62566382],[12.34188463,46.62569273],[12.34189933,46.6257193],[12.34190751,46.62574606],[12.34190619,46.6257776],[12.34188572,46.62581645],[12.34186379,46.6258846],[12.34187294,46.62592708],[12.34189375,46.62594672],[12.34192635,46.62594577],[12.34194383,46.62591151],[12.34199767,46.62583118],[12.34201557,46.62580366],[12.34205477,46.62575076],[12.34208245,46.62572295],[12.34216112,46.62562165],[12.34218228,46.62559403],[12.3422375,46.62553616],[12.34235925,46.62544485],[12.34244422,46.62539286],[12.34250138,46.62536644],[12.34255909,46.625349],[12.34260598,46.62536788],[12.34260889,46.62541505],[12.34260049,46.62543779],[12.34258897,46.62546288],[12.34254069,46.62552729],[12.34252958,46.62555912],[12.34252556,46.62559974],[12.34251459,46.62563381],[12.34248559,46.62569316],[12.34247476,46.62572948],[12.3424554,46.62578629],[12.34244693,46.62586079],[12.34244859,46.62588774],[12.34245025,46.6259147],[12.34245559,46.62594829],[12.34246112,46.62603813],[12.34246687,46.62607846],[12.34247407,46.62619526],[12.34247032,46.62624037],[12.34246844,46.62626292],[12.34246684,46.62628997],[12.34245274,46.62643214],[12.34244761,46.62645479],[12.34244289,46.62648418],[12.3424288,46.62652059],[12.34241339,46.62658854],[12.34239944,46.6266272],[12.34237558,46.6266639],[12.34236149,46.62670031],[12.34225764,46.6267641],[12.34215476,46.62684361],[12.34212355,46.62686702],[12.34210211,46.62689015],[12.34208067,46.62691328],[12.34205611,46.62693875],[12.34203384,46.6269484],[12.34202815,46.62696207],[12.34204244,46.6269819],[12.34205035,46.62700417],[12.34203487,46.62701812],[12.34201899,46.62702534],[12.34196343,46.62702471],[12.34194782,46.62703642],[12.34198153,46.62705343],[12.34199609,46.62707776],[12.34197465,46.62710088],[12.34197471,46.62715488],[12.34197284,46.62717744],[12.34196444,46.62720018],[12.34195292,46.62722527],[12.3419319,46.62725514],[12.34192718,46.62728453],[12.34193564,46.62731578],[12.3419604,46.62734656],[12.34200215,46.62738809],[12.34203412,46.6274299],[12.34205305,46.6274721],[12.34205457,46.62749681],[12.34204971,46.62752395],[12.34203888,46.62756027],[12.34204096,46.62759396],[12.34205282,46.62762736],[12.34207799,46.62766487],[12.34209949,46.62769575],[12.34214326,46.62771697],[12.34222233,46.62772816],[12.34228947,46.62775769],[12.3423247,46.62779941],[12.34233587,46.62782159],[12.34234419,46.62785059],[12.342343,46.62788438],[12.34234168,46.62791592],[12.34234348,46.62794512],[12.34235235,46.62798311],[12.34235401,46.62801006],[12.34235866,46.62803243],[12.34236656,46.62805469],[12.34237814,46.62808361],[12.34239014,46.62811926],[12.34241219,46.62815911],[12.34241982,46.62817689],[12.34242759,46.62819691],[12.34243292,46.62823051],[12.34246732,46.62825875],[12.3424839,46.62826277],[12.34250076,46.62827128],[12.3424592,46.62828599],[12.34240627,46.62832804],[12.34240481,46.62835733],[12.34243026,46.62839934],[12.34242283,46.62843781],[12.34237531,46.6284617],[12.34232932,46.62851029],[12.34233355,46.62852592],[12.34236004,46.6285319],[12.34239265,46.62853094],[12.34243475,46.62852521],[12.34245528,46.62854036],[12.34243045,46.62856134],[12.34241893,46.62858643],[12.34239437,46.62861189],[12.34240213,46.62863192],[12.34241844,46.62863144],[12.34243772,46.62862638],[12.34246596,46.62860755],[12.34249557,46.62861118],[12.34251326,46.62863317],[12.3425213,46.62865768],[12.34250666,46.62868511],[12.34248196,46.62870834],[12.34244353,46.62872071],[12.3424187,46.62874169],[12.34238872,46.62878531],[12.34239011,46.62880777],[12.34240793,46.628832],[12.3424218,46.6288451],[12.34243907,46.62886034],[12.34247692,46.62905049],[12.34247997,46.6290999],[12.342469,46.62913397],[12.34245762,46.62916131],[12.3424255,46.629223],[12.34239212,46.62926448],[12.34235757,46.62933974],[12.3423269,46.62937214],[12.34228916,46.62939574],[12.34226162,46.6294258],[12.34222783,46.62946054],[12.34218725,46.62949097],[12.34214299,46.62951477],[12.34212224,46.62954912],[12.34209379,46.62961746],[12.34207235,46.62964059],[12.34204904,46.62968627],[12.34204092,46.62971351],[12.342021,46.62976134],[12.34199741,46.62980253],[12.34197382,46.62984372],[12.3419589,46.62986666],[12.34194752,46.62989399],[12.34192407,46.62993743],[12.34191678,46.62997814],[12.34191601,46.63001867],[12.34191739,46.63004113],[12.34192232,46.63006798],[12.34192168,46.63011075],[12.34192078,46.63014903],[12.34191647,46.63018516],[12.3419028,46.63022831],[12.34183112,46.63039016],[12.34180752,46.63043135],[12.34177623,46.63050652],[12.3417622,46.63059693],[12.34175165,46.63063774],[12.3417377,46.6306764],[12.34171765,46.63072198],[12.34169988,46.63075175],[12.3416919,46.63078124],[12.34169578,46.63084413],[12.34169175,46.63088474],[12.34167426,46.63091901],[12.34163318,46.63099446],[12.34161556,46.63102648],[12.34159959,46.63108544],[12.34159799,46.63111249],[12.34159653,46.63114178],[12.34159493,46.63116883],[12.3415893,46.6312365],[12.34156925,46.63128209],[12.34152872,46.63136652],[12.34151546,46.63141641],[12.34149458,46.63144852],[12.34147002,46.63147399],[12.34139481,46.63152569],[12.34137566,46.631533],[12.34135638,46.63153807],[12.3413269,46.63153668],[12.34130081,46.63153744],[12.3412902,46.63152425],[12.34131719,46.63148521],[12.34134231,46.63146872],[12.34131879,46.63145816],[12.34126364,46.63146427],[12.34106579,46.63153981],[12.3410336,46.6315475],[12.34097436,46.63154023],[12.34093017,46.63151227],[12.3409061,46.63149273],[12.34088856,46.63147299],[12.34086366,46.63143997],[12.3408423,46.63141134],[12.34082433,46.63138487],[12.34080637,46.63135839],[12.34078855,46.63133416],[12.34077385,46.63130759],[12.34075248,46.63127896],[12.34073099,46.63124809],[12.34070678,46.6312263],[12.34068923,46.63120656],[12.34067439,46.63117774],[12.34067273,46.63115079],[12.34067121,46.63112609],[12.34066615,46.63109698],[12.34065485,46.63107256],[12.34064368,46.63105039],[12.34062503,46.63101268],[12.34060311,46.63097507],[12.34058079,46.63093072],[12.34057031,46.63091978],[12.3405631,46.63090874],[12.34052461,46.63086711],[12.34048327,46.63083232],[12.3404327,46.6308068],[12.34037236,46.63078156],[12.34030861,46.63075418],[12.3402484,46.63073118],[12.3401977,46.63070342],[12.340178,46.63070174],[12.340142,46.63070054],[12.34006444,46.63071406],[12.34000214,46.63076313],[12.33998111,46.630793],[12.33990209,46.63083581],[12.33969076,46.63101074],[12.33966509,46.63101824],[12.33962895,46.63101479],[12.33959621,46.6310135],[12.33954078,46.63101512],[12.33949229,46.63102329],[12.33944637,46.63102013],[12.33939718,46.63101707],[12.3393745,46.63101998],[12.33935466,46.63101606],[12.33931145,46.63100382],[12.33927489,46.63099364],[12.33921357,46.63095268],[12.33915268,46.63091846],[12.33908622,46.63090015],[12.33902955,46.63088156],[12.33897136,46.63083825],[12.33892635,46.63079682],[12.33888473,46.63075753],[12.3388529,46.63071796],[12.33883944,46.63071161],[12.33883265,46.6307073],[12.33883535,46.63069822],[12.3388235,46.63066482],[12.33881518,46.63063581],[12.33880686,46.6306068],[12.33879841,46.63057555],[12.33878301,46.63053775],[12.33877116,46.63050435],[12.33876569,46.6304685],[12.33876035,46.63043491],[12.33874891,46.63040824],[12.33873463,46.63038841],[12.33869315,46.63035137],[12.33864571,46.63032351],[12.33858578,46.63030501],[12.33852938,46.6302909],[12.33847175,46.63025659],[12.33842403,46.63022423],[12.33839302,46.63019813],[12.33837194,46.630174],[12.33835724,46.63014743],[12.33833914,46.63011871],[12.3383103,46.63007455],[12.33828824,46.63003469],[12.33827285,46.62999689],[12.33826495,46.62997462],[12.33825705,46.62995235],[12.33824464,46.62990996],[12.33823917,46.62987412],[12.33823695,46.62983819],[12.33822482,46.62980029],[12.33820686,46.62977381],[12.33819244,46.62975173],[12.33816061,46.62971216],[12.33812878,46.62967259],[12.33811435,46.62965051],[12.33810305,46.62962609],[12.33808794,46.62959278],[12.33807962,46.62956377],[12.3380747,46.62953692],[12.33806978,46.62951006],[12.33806486,46.6294832],[12.33806008,46.62945859],[12.3380372,46.62940526],[12.33773451,46.62926335],[12.33765875,46.62930606],[12.3376222,46.62929588],[12.33758294,46.62929477],[12.33754326,46.62928693],[12.33751309,46.62927431],[12.33746836,46.62923737],[12.33740787,46.62920988],[12.33737527,46.62921084],[12.33733982,46.62921862],[12.33727774,46.62921818],[12.33723292,46.62923299],[12.33716951,46.6292641],[12.33709875,46.62928191],[12.33709063,46.62930915],[12.33714515,46.62934581],[12.33719231,46.62936918],[12.337246,46.62939237],[12.33727658,46.62941172],[12.33729128,46.62943829],[12.3372996,46.6294673],[12.33731485,46.62950286],[12.33732331,46.62953411],[12.3373251,46.62956331],[12.33732024,46.62959045],[12.33731212,46.62961769],[12.3372541,46.62973639],[12.33723349,46.62977299],[12.33721274,46.62980735],[12.33717055,46.62986483],[12.33709089,46.62995041],[12.33706702,46.62998711],[12.33703691,46.63002849],[12.33697944,46.63015617],[12.33694946,46.63019979],[12.3368553,46.63031505],[12.33679841,46.63034596],[12.33674243,46.63033859],[12.33672732,46.63030528],[12.336719,46.63027627],[12.33668148,46.63025037],[12.33662876,46.63024291],[12.33657278,46.63023554],[12.33652998,46.63023004],[12.3364842,46.63022913],[12.33643529,46.63023056],[12.33639644,46.63023619],[12.33636779,46.63024828],[12.33631797,46.63028798],[12.33624276,46.63033968],[12.33617678,46.63038211],[12.3360288,46.63047193],[12.33583301,46.63058114],[12.33577612,46.63061206],[12.33573213,46.63064034],[12.33569494,46.63067293],[12.33566496,46.63071655],[12.33561964,46.63077638],[12.33559834,46.63080175],[12.33546914,46.63093152],[12.33545789,46.6309611],[12.33548619,46.63099628],[12.33549506,46.63103427],[12.3354784,46.63108201],[12.33546049,46.63110953],[12.33542913,46.6311307],[12.33529509,46.63118186],[12.33527094,46.63121406],[12.33524978,46.63124168],[12.33521474,46.6312562],[12.33517263,46.63126193],[12.33513378,46.63126757],[12.33509806,46.63127086],[12.33505609,46.63127883],[12.3350042,46.63128485],[12.33496222,46.63129282],[12.33492379,46.6313052],[12.33488251,46.6313244],[12.33481542,46.63134886],[12.33476151,46.63137518],[12.33471426,46.63140356],[12.33466784,46.63144542],[12.3346335,46.63147117],[12.3345986,46.63148794],[12.3345603,46.63150256],[12.33451888,46.63151952],[12.33441336,46.63155635],[12.3343657,46.63157799],[12.33432171,46.63160627],[12.33432593,46.6316219],[12.33436616,46.63163872],[12.33439335,46.63165593],[12.33439813,46.63168054],[12.33435483,46.63172006],[12.33429156,46.6317534],[12.33425721,46.63177916],[12.33425588,46.6318107],[12.3342873,46.63184353],[12.33434751,46.63186652],[12.33435229,46.63189113],[12.33431509,46.63192372],[12.33427707,46.63194283],[12.33427519,46.63196539],[12.33429517,46.63197155],[12.33431855,46.63197987],[12.33432277,46.6319955],[12.33432076,46.63201581],[12.33430299,46.63204558],[12.33425886,46.63207161],[12.33420155,46.63209579],[12.33406945,46.63217839],[12.33396218,46.63224002],[12.33391507,46.63227065],[12.33386864,46.6323125],[12.33382438,46.6323363],[12.33379045,46.63236879],[12.33377102,46.6323716],[12.33376083,46.63236515],[12.33375292,46.63234288],[12.33375154,46.63232042],[12.33373074,46.63230078],[12.33369744,46.6322905],[12.33366171,46.63229379],[12.33363104,46.63232618],[12.33348186,46.63244979],[12.33343516,46.63248715],[12.33338846,46.63252451],[12.33333212,46.63256441],[12.33328909,46.63260841],[12.33325093,46.63262528],[12.33320868,46.63262876],[12.33307155,46.63257651],[12.33301828,46.63256006],[12.33296854,46.63254801],[12.33292221,46.63253811],[12.33287927,46.63253037],[12.33283321,46.63252496],[12.33278714,46.63251955],[12.33273768,46.63251199],[12.33268184,46.63250687],[12.33262246,46.63249735],[12.332573,46.6324898],[12.33252382,46.63248673],[12.33240768,46.63251037],[12.33236342,46.63253416],[12.33228278,46.63260401],[12.33222901,46.63263258],[12.33217427,46.63264542],[12.33211246,46.63264948],[12.33204399,46.63265147],[12.33199154,46.6326485],[12.33194562,46.63264534],[12.33190296,46.63264208],[12.33185405,46.63264351],[12.33180188,46.63264503],[12.33158439,46.63266712],[12.33149025,46.63267662],[12.33145113,46.63267776],[12.33122386,46.63270013],[12.33110322,46.63270365],[12.33103745,46.63269657],[12.33100131,46.63269312],[12.33096829,46.63268733],[12.33090524,46.63267117],[12.33084898,46.63265931],[12.33079897,46.63264277],[12.33075236,46.63262837],[12.33070561,46.63261174],[12.33065872,46.63259285],[12.33060843,46.63257182],[12.33055488,46.63255088],[12.33051805,46.6325362],[12.33048462,46.63252367],[12.33042441,46.63250068],[12.33036448,46.63248217],[12.33030795,46.63246582],[12.33024816,46.63244956],[12.3301885,46.63243555],[12.33012219,46.63241948],[12.33004935,46.6324036],[12.33000954,46.63239351],[12.32997298,46.63238333],[12.32993657,46.63237539],[12.32990327,46.63236511],[12.32984036,46.63235119],[12.32978056,46.63233493],[12.32972077,46.63231868],[12.32965772,46.63230251],[12.32962456,46.63229448],[12.32959127,46.6322842],[12.32955485,46.63227626],[12.32951829,46.63226607],[12.32947834,46.63225374],[12.32944192,46.6322458],[12.32940537,46.63223561],[12.32937235,46.63222982],[12.32930944,46.63221591],[12.32924652,46.63220199],[12.329187,46.63219022],[12.32912083,46.6321764],[12.32908767,46.63216837],[12.32905452,46.63216033],[12.32901796,46.63215015],[12.32898154,46.63214221],[12.32892827,46.63212576],[12.32888492,46.63211127],[12.32884497,46.63209893],[12.32880814,46.63208426],[12.32877131,46.63206958],[12.32873122,46.632055],[12.328688,46.63204275],[12.32864153,46.63203061],[12.32859179,46.63201856],[12.32854858,46.63200631],[12.32850551,46.63199632],[12.32846569,46.63198623],[12.32842588,46.63197614],[12.32838606,46.63196605],[12.32834964,46.63195811],[12.32831309,46.63194792],[12.32827667,46.63193998],[12.32824026,46.63193204],[12.3282037,46.63192186],[12.32816402,46.63191401],[12.32812421,46.63190392],[12.32808113,46.63189392],[12.32803806,46.63188393],[12.32799172,46.63187403],[12.32795517,46.63186384],[12.32792201,46.63185581],[12.32786236,46.63184179],[12.3278027,46.63182778],[12.32774971,46.63181582],[12.32769345,46.63180396],[12.32763734,46.63179435],[12.32757456,46.63178267],[12.32750852,46.6317711],[12.32744942,46.63176607],[12.32739767,46.63177432],[12.32729526,46.63180881],[12.32724365,46.63181931],[12.32719841,46.63182738],[12.32715276,46.6318287],[12.3271067,46.63182329],[12.32706689,46.6318132],[12.32703672,46.63180058],[12.32698304,46.63177739],[12.32693234,46.63174962],[12.32687186,46.63172213],[12.32682143,46.63169885],[12.32677781,46.63167987],[12.32673744,46.63166079],[12.32670047,46.63164387],[12.32666025,46.63162704],[12.32662002,46.63161021],[12.32657639,46.63159123],[12.32652964,46.63157459],[12.32648955,46.63156],[12.32641617,46.63153514],[12.32638288,46.63152486],[12.32631643,46.63150654],[12.32625351,46.63149262],[12.3261872,46.63147655],[12.32615419,46.63147076],[12.32612117,46.63146497],[12.32608475,46.63145703],[12.32604521,46.63145143],[12.32600554,46.63144359],[12.325966,46.63143799],[12.32592632,46.63143014],[12.32589018,46.63142669],[12.32585716,46.63142091],[12.32582116,46.6314197],[12.32575893,46.63141701],[12.32569685,46.63141657],[12.3256349,46.63141837],[12.32543018,46.63143558],[12.32530316,46.63144153],[12.32519896,46.63144681],[12.32514679,46.63144833],[12.3250949,46.63145434],[12.32503649,46.63146054],[12.32497509,46.63147132],[12.32493936,46.63147461],[12.32490717,46.6314823],[12.32484577,46.63149308],[12.32478763,46.63150378],[12.3245752,46.63155496],[12.32421907,46.63165982],[12.32410035,46.63169477],[12.32390748,46.63174538],[12.32361463,46.6318169],[12.32337936,46.63186874],[12.32331797,46.63187953],[12.32321147,46.63190063],[12.3230664,46.63193185],[12.3229796,46.63195462],[12.32293451,46.63196493],[12.32288955,46.63197749],[12.32284445,46.6319878],[12.32275141,46.63201526],[12.32259426,46.63206258],[12.32229897,46.63214766],[12.32226365,46.63215769],[12.32222848,46.63216996],[12.3221516,46.6321947],[12.32194719,46.63227039],[12.32190875,46.63228276],[12.32187371,46.63229728],[12.32183853,46.63230955],[12.32181002,46.63232388],[12.32174944,46.63234814],[12.32169566,46.6323767],[12.32164515,46.63240517],[12.32154507,46.63247783],[12.32149226,46.63252212],[12.32144555,46.63255948],[12.32131319,46.63269158],[12.32121559,46.63280466],[12.32115409,46.6328672],[12.32104239,46.6330167],[12.32102177,46.6330533],[12.32099449,46.63308785],[12.3208611,46.63330998],[12.32083354,46.63334003],[12.32080245,46.63336568],[12.32077108,46.63338684],[12.32073632,46.63340585],[12.32066012,46.63344182],[12.32058462,46.63348901],[12.3205212,46.63352011],[12.32046457,46.6335555],[12.32037956,46.63360747],[12.32034167,46.63362883],[12.3203069,46.63364784],[12.32026887,46.63366694],[12.32013537,46.63372707],[12.32006514,46.63375386],[12.31994372,46.63379789],[12.31988938,46.63381747],[12.31971009,46.63387668],[12.31964313,46.63390337],[12.31960565,46.63393146],[12.31960188,46.63397657],[12.31959728,46.63400821],[12.31960559,46.63403722],[12.31962028,46.63406379],[12.31964191,46.63409691],[12.31965334,46.63412358],[12.31966941,46.63417262],[12.31967418,46.63419723],[12.31967882,46.63421959],[12.31968685,46.63424411],[12.31969502,46.63427087],[12.31970673,46.63430203],[12.31973189,46.63433955],[12.31977662,46.63437651],[12.31979117,46.63440083],[12.31978617,46.63442573],[12.31975061,46.63448526],[12.3197293,46.63451063],[12.31971125,46.63453591],[12.3196746,46.63457747],[12.31959206,46.63466987],[12.31955173,46.6347048],[12.31951411,46.63473064],[12.3194697,46.63475218],[12.31941225,46.6347741],[12.31936076,46.63478684],[12.31931566,46.63479715],[12.31927722,46.63480952],[12.3192002,46.63483201],[12.31912047,46.63486357],[12.31908272,46.63488717],[12.31899729,46.6349324],[12.31895261,46.63494945],[12.31890098,46.63495995],[12.31885547,46.63496352],[12.3187779,46.63497702],[12.31874557,46.63498246],[12.31867438,46.63499353],[12.31863553,46.63499916],[12.31859342,46.63500488],[12.31840811,46.63501926],[12.31829807,46.63503596],[12.31823653,46.6350445],[12.31818816,46.6350549],[12.31814334,46.6350697],[12.31800711,46.63513891],[12.31796229,46.63515371],[12.31791067,46.63516421],[12.3177869,46.63517005],[12.31773133,46.63516941],[12.3176691,46.63516672],[12.31761991,46.63516365],[12.31758363,46.63515795],[12.31754396,46.6351501],[12.31750115,46.6351446],[12.31744843,46.63513713],[12.31740223,46.63512947],[12.31735916,46.63511947],[12.31731296,46.63511181],[12.31725996,46.63509985],[12.31718033,46.63507966],[12.31713399,46.63506975],[12.31709092,46.63505975],[12.31705477,46.6350563],[12.31701551,46.63505519],[12.31697624,46.63505408],[12.31692733,46.6350555],[12.31685968,46.63507096],[12.31682055,46.6350721],[12.31678441,46.63506865],[12.31675125,46.63506061],[12.31671525,46.6350594],[12.31665343,46.63506345],[12.31652915,46.63511431],[12.31649397,46.63512658],[12.31645213,46.63513679],[12.31636831,46.63515497],[12.31633327,46.63516949],[12.3162985,46.6351885],[12.31625707,46.63520545],[12.31603922,46.63532878],[12.31592486,46.6353816],[12.3158674,46.63540351],[12.31580328,46.63542337],[12.31574188,46.63543416],[12.31563496,46.63544851],[12.31546787,46.63549386],[12.31537252,46.63553712],[12.31532076,46.63554537],[12.31519579,46.635585],[12.31513806,46.63560243],[12.31500183,46.63567163],[12.31485839,46.63572979],[12.31481003,46.63574019],[12.31476791,46.63574591],[12.31472552,46.63574714],[12.31467987,46.63574847],[12.31464387,46.63574726],[12.31461493,46.63575485],[12.31457282,46.63576057],[12.31446658,46.63578615],[12.31442515,46.63580311],[12.31440085,46.63583306],[12.31435712,46.63586583],[12.31431951,46.63589167],[12.31423476,46.63594813],[12.31419374,46.63597182],[12.31415245,46.63599102],[12.31411414,46.63600563],[12.31407244,46.63601809],[12.3139889,46.63604076],[12.31389938,46.63607261],[12.3138642,46.63608488],[12.31372388,46.6361407],[12.31366697,46.6361716],[12.31361929,46.63619323],[12.31358153,46.63621683],[12.31354378,46.63624042],[12.31350983,46.63627291],[12.31344763,46.63632421],[12.31337864,46.63637121],[12.31316051,46.63649004],[12.31305578,46.63654033],[12.31295432,46.63659052],[12.31291927,46.63660503],[12.31288721,46.63661496],[12.31285515,46.63662489],[12.31281983,46.63663492],[12.31274538,46.63664608],[12.3126871,46.63665451],[12.31262583,46.63666754],[12.3125935,46.63667298],[12.31256144,46.63668291],[12.31249989,46.63669144],[12.31234107,46.6367118],[12.3122832,46.63672697],[12.31222887,46.63674655],[12.31214789,46.63675789],[12.3118539,46.63681142],[12.31181844,46.63681919],[12.31163899,46.63687614],[12.31159403,46.6368887],[12.31155544,46.63689882],[12.31152026,46.63691109],[12.31141783,46.63694555],[12.31137939,46.63695792],[12.31134122,46.63697477],[12.31128973,46.63698752],[12.31124775,46.63699548],[12.31115387,46.63700945],[12.31111447,46.63700609],[12.31108104,46.63699356],[12.31102979,46.6369568],[12.310992,46.63692639],[12.31095775,46.63690038],[12.31091371,46.63687466],[12.31088286,46.6368508],[12.31097183,46.63680997],[12.3109926,46.63677562],[12.31099758,46.63669672],[12.31108666,46.63660414],[12.31110403,46.63656764],[12.31108934,46.63654106],[12.3110464,46.63653331],[12.31100768,46.63654118],[12.31093148,46.63657714],[12.31092386,46.63655936],[12.31094789,46.63652491],[12.31095901,46.63649309],[12.31097721,46.63647006],[12.31101658,46.63641942],[12.31107373,46.63633901],[12.31109437,46.63630241],[12.31110806,46.63625926],[12.31110614,46.63622782],[12.31110464,46.63620311],[12.31109753,46.63614032],[12.31108501,46.63609568],[12.31108024,46.63607107],[12.31107533,46.63604421],[12.31106377,46.63601529],[12.31105886,46.63598843],[12.31105097,46.63596616],[12.31104634,46.6359438],[12.3110417,46.63592143],[12.31103693,46.63589682],[12.3110289,46.6358723],[12.311024,46.63584544],[12.31101528,46.63580969],[12.31101676,46.6357804],[12.31103248,46.63571694],[12.31104035,46.63568521],[12.31104536,46.63566032],[12.31105023,46.63563318],[12.31105171,46.63560388],[12.31101066,46.63557357],[12.3109635,46.63555019],[12.31095534,46.63552342],[12.31097367,46.63550264],[12.31100504,46.63548148],[12.31103954,46.63545798],[12.31108258,46.63541398],[12.31121662,46.63530885],[12.31118958,46.63529388],[12.31112803,46.63530242],[12.31107899,46.63530159],[12.31102966,46.63529627],[12.31102572,46.63528513],[12.31104758,46.63526875],[12.3110818,46.63524075],[12.31112622,46.63521922],[12.31112756,46.63518768],[12.31109671,46.63516382],[12.31109859,46.63514127],[12.31112983,46.63511786],[12.3111635,46.63508088],[12.31120737,46.63505036],[12.31122543,46.63502509],[12.31124348,46.63499981],[12.31129099,46.63492194],[12.31147906,46.63473873],[12.31142009,46.63473594],[12.31135639,46.63476254],[12.3112181,46.63479805],[12.31117623,46.63475426],[12.31111534,46.63472002],[12.31105215,46.6347016],[12.31098951,46.63469217],[12.31092972,46.6346759],[12.31087659,46.63466169],[12.31082658,46.63464514],[12.31078323,46.63463064],[12.31073662,46.63461624],[12.31068689,46.63460418],[12.31063376,46.63458997],[12.3105775,46.6345781],[12.31052791,46.63456829],[12.31048171,46.63456062],[12.31043905,46.63455736],[12.31039978,46.63455625],[12.31031826,46.63455861],[12.31027275,46.63456218],[12.31022398,46.63456584],[12.31007752,46.63457458],[12.31003866,46.63458021],[12.30995443,46.63459165],[12.30985757,46.6346102],[12.309744,46.63462249],[12.30963015,46.63463029],[12.30955189,46.63463255],[12.3094841,46.63464577],[12.30942012,46.63466787],[12.30935912,46.63468539],[12.30930002,46.63468035],[12.30925056,46.63467278],[12.30920436,46.63466512],[12.30915151,46.6346554],[12.30910857,46.63464764],[12.30907215,46.6346397],[12.30900965,46.6346325],[12.30891128,46.63462635],[12.30890243,46.63458836],[12.30890689,46.63455448],[12.30887834,46.6345148],[12.30883077,46.63448468],[12.30880644,46.63446063],[12.30879203,46.63443855],[12.30878074,46.63441413],[12.30877257,46.63438736],[12.30875788,46.63436079],[12.30874986,46.63433627],[12.30872769,46.63429416],[12.3087024,46.63425439],[12.30866392,46.63421276],[12.30862586,46.63417786],[12.30855736,46.63412584],[12.30851659,46.63410002],[12.3084519,46.63405689],[12.30840066,46.63402012],[12.30834616,46.63398345],[12.30831245,46.63396642],[12.30827875,46.6339494],[12.30824165,46.63393022],[12.30820822,46.63391769],[12.30817479,46.63390516],[12.3081381,46.63389272],[12.30809081,46.63386709],[12.30806607,46.6338363],[12.30805395,46.6337984],[12.30804497,46.63375816],[12.30803694,46.63373364],[12.30803883,46.63371109],[12.30805905,46.63366775],[12.30811254,46.6335807],[12.30812366,46.63354888],[12.30811481,46.63351089],[12.30809999,46.63348206],[12.30807864,46.63345343],[12.30806028,46.63342021],[12.30803853,46.63338484],[12.30800822,46.63336997],[12.30797249,46.63337325],[12.30794301,46.63337186],[12.30788566,46.63334202],[12.30783823,46.63331414],[12.30780995,46.63327896],[12.30782067,46.63324039],[12.30781195,46.63320465],[12.30778721,46.63317386],[12.30775581,46.63314102],[12.30774723,46.63310752],[12.3077354,46.63307411],[12.30772383,46.63304519],[12.30770928,46.63302086],[12.30768794,46.63299223],[12.30766972,46.63296126],[12.30766155,46.63293449],[12.30766791,46.63287806],[12.30766884,46.63283978],[12.30768323,46.63280786],[12.30770441,46.63278025],[12.30774189,46.63275216],[12.30775669,46.63272699],[12.30775844,46.63270218],[12.30775625,46.63266625],[12.30778069,46.63263854],[12.30781206,46.63261738],[12.30783379,46.63259875],[12.307835,46.63256497],[12.30783184,46.63251331],[12.30783658,46.63248392],[12.30783154,46.63245481],[12.30782678,46.6324302],[12.30782215,46.63240783],[12.30781724,46.63238098],[12.30779469,46.63238613],[12.30776726,46.63241842],[12.30772394,46.63245793],[12.30769394,46.63250155],[12.30767695,46.63249079],[12.3076666,46.63242809],[12.30766821,46.63240104],[12.30766235,46.63235846],[12.30766682,46.63232458],[12.30767547,46.63225233],[12.30765468,46.63223268],[12.30762221,46.63223587],[12.30756177,46.63226237],[12.30751505,46.63229972],[12.30747118,46.63233024],[12.3074337,46.63235832],[12.30736268,46.63242563],[12.30730251,46.63245662],[12.30727045,46.63246655],[12.30723513,46.63247657],[12.30721107,46.63245702],[12.30722165,46.63241621],[12.30722272,46.63238018],[12.30725324,46.63229155],[12.30724398,46.63224681],[12.30722521,46.63220685],[12.3072002,46.63217158],[12.30716907,46.63214323],[12.30710126,46.63210244],[12.30705506,46.63209478],[12.30700914,46.6320916],[12.30696607,46.6320816],[12.30693237,46.63206458],[12.30690817,46.63204278],[12.30689675,46.63201611],[12.30688491,46.6319827],[12.30687009,46.63195388],[12.30685554,46.63192955],[12.30683746,46.63190082],[12.30679641,46.63187051],[12.30674315,46.63185405],[12.30669517,46.63181718],[12.30669041,46.63179257],[12.30668616,46.63172294],[12.30669035,46.63168457],[12.30668504,46.63165097],[12.30667688,46.63162421],[12.30665893,46.63159773],[12.30664411,46.63156891],[12.3066263,46.63154467],[12.30661189,46.63152259],[12.30654229,46.6314526],[12.30651035,46.63141077],[12.3064958,46.63138644],[12.30648791,46.63136417],[12.30649196,46.63132355],[12.30651219,46.63128022],[12.30654219,46.6312366],[12.30656268,46.63119775],[12.30658006,46.63116125],[12.30658683,46.63111155],[12.30665089,46.6309837],[12.30664938,46.63095899],[12.30663497,46.63093691],[12.30658116,46.63091146],[12.30652762,46.63089051],[12.30649636,46.63085992],[12.30647841,46.63083343],[12.30646074,46.63081144],[12.30639797,46.63079976],[12.30635926,46.63080763],[12.30632394,46.63081765],[12.30627218,46.6308259],[12.30623062,46.6308406],[12.30615143,46.63088114],[12.30607482,46.63091036],[12.30599808,46.63093733],[12.30593667,46.63094811],[12.30588152,46.6309542],[12.30576795,46.63096649],[12.30570981,46.63097717],[12.30566526,46.63099646],[12.30558037,46.63105067],[12.30553596,46.6310722],[12.30549834,46.63109804],[12.30546384,46.63112154],[12.30537054,46.63119849],[12.30533278,46.63122208],[12.30528851,46.63124586],[12.30520905,46.63128191],[12.30514249,46.63131534],[12.30508585,46.63135072],[12.30503248,46.63138602],[12.30481777,46.63156098],[12.3047083,46.63164065],[12.30467367,46.6316619],[12.3046389,46.63168091],[12.30460086,46.63170001],[12.30455631,46.63171929],[12.3045085,46.63173868],[12.30446951,46.63174205],[12.30443323,46.63173635],[12.30439518,46.63170145],[12.30439014,46.63167235],[12.30438863,46.63164764],[12.30439378,46.63162499],[12.30440083,46.63157979],[12.30440272,46.63155723],[12.30440121,46.63153252],[12.30439631,46.63150567],[12.30438081,46.63146561],[12.3043721,46.63142986],[12.30436012,46.63139421],[12.30435141,46.63135846],[12.30434298,46.6313272],[12.3043344,46.6312937],[12.30432284,46.63126479],[12.30431441,46.63123353],[12.30430271,46.63120237],[12.30427307,46.63114472],[12.30425485,46.63111375],[12.30423337,46.63108287],[12.30420877,46.63105433],[12.30418063,46.63102139],[12.30414937,46.63099079],[12.30410778,46.6309515],[12.30406972,46.6309166],[12.30403507,46.63088385],[12.30400041,46.6308511],[12.30396589,46.6308206],[12.30393151,46.63079234],[12.30390038,46.63076399],[12.303866,46.63073573],[12.30383161,46.63070747],[12.30379737,46.63068146],[12.30376298,46.63065321],[12.3036877,46.63059688],[12.30364339,46.63056666],[12.30359909,46.63053644],[12.30355479,46.63050622],[12.30348005,46.63045888],[12.30341238,46.63042034],[12.30338194,46.63040322],[12.30334498,46.63038628],[12.30330788,46.63036711],[12.3032644,46.63035036],[12.30322106,46.63033587],[12.30318152,46.63033026],[12.30314226,46.63032914],[12.30310327,46.63033252],[12.30306456,46.63034039],[12.30298373,46.63035397],[12.30293835,46.63035979],[12.30282764,46.63036524],[12.30279503,46.63036618],[12.30276229,46.63036487],[12.30272955,46.63036357],[12.30269355,46.63036236],[12.30265415,46.630359],[12.30259165,46.63035181],[12.30253567,46.63034442],[12.30248296,46.63033695],[12.3024369,46.63033153],[12.30238745,46.63032396],[12.30233786,46.63031414],[12.30228487,46.63030217],[12.30222848,46.63028805],[12.30219193,46.63027785],[12.30215865,46.63026757],[12.30209859,46.6302468],[12.30204193,46.63022819],[12.30199179,46.63020938],[12.30193826,46.63018843],[12.30188472,46.63016748],[12.30182793,46.63014662],[12.30176448,46.6301237],[12.30172779,46.63011126],[12.30169151,46.63010556],[12.30162929,46.63010286],[12.30156096,46.63010708],[12.30148937,46.6301114],[12.30128097,46.63012192],[12.30119946,46.63012427],[12.30115381,46.63012559],[12.30110789,46.63012242],[12.30106537,46.6301214],[12.30102611,46.63012028],[12.3009901,46.63011907],[12.3009541,46.63011786],[12.3009181,46.63011665],[12.3008855,46.63011759],[12.30084949,46.63011638],[12.30081675,46.63011508],[12.30067329,46.63011922],[12.30055293,46.6301272],[12.30040322,46.63013602],[12.3002728,46.63013978],[12.30021071,46.63013933],[12.30011249,46.63013541],[12.30007635,46.63013196],[12.30004021,46.6301285],[12.30000095,46.63012738],[12.29996468,46.63012168],[12.2999318,46.63011813],[12.29986903,46.63010644],[12.29981264,46.63009232],[12.29976278,46.63007801],[12.29965626,46.63004508],[12.29959648,46.63002881],[12.29953343,46.63001263],[12.29947039,46.62999645],[12.29941727,46.62998223],[12.29936741,46.62996792],[12.29932406,46.62995342],[12.29928086,46.62994117],[12.29923439,46.62992901],[12.29914173,46.62990919],[12.29909907,46.62990592],[12.29903088,46.62991239],[12.29899542,46.62992016],[12.29894054,46.62993074],[12.29886067,46.62996005],[12.29881272,46.62997718],[12.29875485,46.62999235],[12.29869983,46.63000069],[12.29866057,46.62999958],[12.29862456,46.62999837],[12.29856533,46.62999107],[12.29850555,46.6299748],[12.29844237,46.62995637],[12.29839563,46.62993972],[12.29835555,46.62992513],[12.29831886,46.62991269],[12.29828544,46.62990015],[12.29824876,46.62988771],[12.29821207,46.62987527],[12.29817213,46.62986292],[12.29812892,46.62985067],[12.29808585,46.62984066],[12.29804673,46.62984179],[12.29796916,46.62985528],[12.29790069,46.62985725],[12.29784186,46.6298567],[12.2977829,46.6298539],[12.29775016,46.6298526],[12.29771728,46.62984904],[12.29767775,46.62984344],[12.29764473,46.62983764],[12.29758849,46.62982576],[12.2975321,46.62981164],[12.29746906,46.62979546],[12.29742912,46.62978311],[12.29739895,46.62977048],[12.29734487,46.62974054],[12.29730017,46.62970358],[12.29726483,46.6296596],[12.29723031,46.62962909],[12.29718684,46.62961234],[12.29714051,46.62960243],[12.29708738,46.62958821],[12.29704064,46.62957156],[12.29699744,46.62955931],[12.29695437,46.6295493],[12.29691796,46.62954135],[12.29687829,46.62953349],[12.29679215,46.62951348],[12.29674881,46.62949898],[12.2966984,46.62947568],[12.29665791,46.62945435],[12.29661769,46.62943751],[12.29656838,46.62943218],[12.29650942,46.62942938],[12.29645711,46.62942864],[12.296365,46.6294178],[12.29632207,46.62941003],[12.29627588,46.62940237],[12.29622642,46.62939479],[12.29617358,46.62938507],[12.29611651,46.62935971],[12.29608471,46.62932013],[12.29603742,46.62929449],[12.2959968,46.62927091],[12.29595644,46.62925183],[12.29591269,46.62923059],[12.2958521,46.62920083],[12.29580807,46.6291751],[12.29576704,46.62914479],[12.29571934,46.62911241],[12.29567532,46.62908668],[12.29563809,46.62906525],[12.29560113,46.62904832],[12.29556064,46.62902699],[12.29551363,46.62900584],[12.29547056,46.62899583],[12.29542437,46.62898816],[12.29537519,46.62898508],[12.29532914,46.62897966],[12.29528974,46.6289763],[12.2952536,46.62897284],[12.29521747,46.62896938],[12.29518146,46.62896817],[12.29514546,46.62896696],[12.29510933,46.6289635],[12.2950668,46.62896247],[12.29501069,46.62895284],[12.29497048,46.628936],[12.29493325,46.62891457],[12.29488936,46.62889109],[12.29483189,46.62885899],[12.29479085,46.62882868],[12.29474656,46.62879845],[12.29469248,46.62876851],[12.29463134,46.62872977],[12.29461041,46.62870788],[12.29458935,46.62868373],[12.29455782,46.62864864],[12.29453649,46.62862],[12.29451501,46.62858912],[12.29449014,46.62855609],[12.29446582,46.62853204],[12.29444815,46.62851005],[12.29442274,46.62846803],[12.29440045,46.62842367],[12.2943893,46.62840149],[12.29437802,46.62837707],[12.29435261,46.62833505],[12.29433412,46.62829958],[12.2943189,46.62826402],[12.29430014,46.62822406],[12.29428533,46.62819524],[12.29427078,46.6281709],[12.2942595,46.62814648],[12.2942451,46.62812439],[12.29421316,46.62808256],[12.29416818,46.62804111],[12.29412403,46.62801313],[12.29408354,46.6279918],[12.29403245,46.62795727],[12.29399142,46.62792695],[12.29395364,46.62789654],[12.29390609,46.62786641],[12.29385582,46.62784536],[12.29380664,46.62784227],[12.29375461,46.62784602],[12.29369918,46.62784762],[12.29363656,46.62783818],[12.2935867,46.62782386],[12.29353656,46.62780506],[12.29348317,46.62778635],[12.2934363,46.62776745],[12.29339934,46.62775051],[12.29336551,46.62773123],[12.29332828,46.62770981],[12.29327095,46.62767996],[12.29322068,46.62765891],[12.29317041,46.62763785],[12.29311362,46.62761699],[12.29305982,46.62759154],[12.29301919,46.62756796],[12.29297843,46.62754213],[12.29293441,46.6275164],[12.29288374,46.62748861],[12.29284012,46.62746962],[12.29279651,46.62745062],[12.29274624,46.62742957],[12.29270263,46.62741058],[12.29266568,46.62739364],[12.29260114,46.62735275],[12.29257301,46.62731981],[12.29256132,46.62728865],[12.29256268,46.62725711],[12.29256375,46.62722107],[12.29256198,46.62719188],[12.29257785,46.62707667],[12.29256833,46.62702744],[12.29254672,46.62699431],[12.29252227,46.62696801],[12.2924883,46.62694649],[12.29244822,46.6269319],[12.29240502,46.62691964],[12.29235557,46.62691207],[12.29230286,46.62690458],[12.29225355,46.62689925],[12.29221075,46.62689374],[12.29217774,46.62688794],[12.29211199,46.62688083],[12.29204923,46.62686914],[12.29201608,46.62686109],[12.29198279,46.6268508],[12.29191554,46.62681899],[12.2918707,46.62677978],[12.291826,46.62674282],[12.29176541,46.62671306],[12.29171202,46.62669435],[12.29167167,46.62667526],[12.2916377,46.62665374],[12.29160686,46.62662988],[12.29157914,46.62660367],[12.29155142,46.62657747],[12.29152343,46.62654678],[12.29149218,46.62651618],[12.29146107,46.62648782],[12.29143335,46.62646162],[12.29140917,46.62643982],[12.29138498,46.62641801],[12.2913608,46.62639621],[12.29133321,46.62637225],[12.29130889,46.6263482],[12.29128118,46.626322],[12.29125006,46.62629364],[12.29122234,46.62626744],[12.29117071,46.62622393],[12.29111284,46.62618509],[12.29107914,46.62616806],[12.29104205,46.62614888],[12.29098812,46.62612118],[12.29094736,46.62609536],[12.29090986,46.62606944],[12.29086571,46.62604146],[12.29082481,46.62601338],[12.29080036,46.62598709],[12.29077902,46.62595845],[12.29075103,46.62592776],[12.29072006,46.62590165],[12.29069275,46.62588218],[12.29064153,46.62584541],[12.29059669,46.6258062],[12.29057251,46.62578439],[12.29055145,46.62576025],[12.29052604,46.62571823],[12.29052046,46.62568014],[12.29052453,46.62563952],[12.29052846,46.62559666],[12.29051691,46.62556774],[12.29049598,46.62554584],[12.29046868,46.62552638],[12.29044436,46.62550233],[12.29042289,46.62547145],[12.29042274,46.6254152],[12.29042083,46.62538375],[12.29040887,46.6253481],[12.29039406,46.62531927],[12.29037613,46.62529279],[12.29035792,46.62526181],[12.29033278,46.62522428],[12.29030465,46.62519134],[12.2902768,46.62516289],[12.29024908,46.62513669],[12.29022123,46.62510824],[12.29019664,46.6250797],[12.29017503,46.62504657],[12.29015981,46.62501101],[12.29015166,46.62498424],[12.29015016,46.62495954],[12.29021412,46.62482944],[12.29020813,46.62478461],[12.29017661,46.62474952],[12.29012254,46.62471958],[12.29006223,46.62469431],[12.29000517,46.62466895],[12.28995789,46.62464331],[12.28992352,46.62461505],[12.28990816,46.62457724],[12.28988954,46.62453953],[12.28987446,46.62450621],[12.28986291,46.62447729],[12.28985462,46.62444828],[12.28984619,46.62441702],[12.2898379,46.62438801],[12.28982934,46.62435451],[12.28982064,46.62431876],[12.28980487,46.62427421],[12.28979278,46.62423631],[12.28976791,46.62420327],[12.28972715,46.62417745],[12.28966657,46.62414769],[12.28962241,46.62411971],[12.28958763,46.62408471],[12.28956222,46.62404269],[12.28953369,46.62400301],[12.28949592,46.6239726],[12.28944905,46.6239537],[12.28939322,46.62394855],[12.28934704,46.62394088],[12.28931036,46.62392844],[12.28927667,46.62391141],[12.28923972,46.62389447],[12.28918008,46.62388044],[12.28912479,46.62388428],[12.28900553,46.62391021],[12.28891805,46.62392173],[12.28883737,46.62393755],[12.28878548,46.62394354],[12.28874323,46.62394701],[12.28870071,46.62394598],[12.2886548,46.6239428],[12.28861187,46.62393504],[12.2885756,46.62392933],[12.28850958,46.62391773],[12.28844981,46.62390145],[12.28841653,46.62389116],[12.28838311,46.62387862],[12.28834303,46.62386402],[12.28830663,46.62385607],[12.28827375,46.62385252],[12.28820529,46.62385449],[12.28808834,46.6238646],[12.28801349,46.623869],[12.2878873,46.62388838],[12.28785171,46.62389391],[12.28781612,46.62389943],[12.28776423,46.62390543],[12.28768381,46.62392574],[12.28764252,46.62394493],[12.28759824,46.6239687],[12.28758058,46.62400071],[12.2875594,46.62408232],[12.28754175,46.62411433],[12.28752056,46.62414194],[12.28746134,46.62418864],[12.28740619,46.62419473],[12.28736897,46.6241733],[12.28735103,46.62414682],[12.28733962,46.62412014],[12.28732848,46.62409796],[12.28731407,46.62407588],[12.28728554,46.6240362],[12.28723446,46.62400167],[12.28717877,46.62399877],[12.28712959,46.62399568],[12.28706819,46.62395245],[12.28695897,46.62387459],[12.28692378,46.62383285],[12.2869015,46.62378849],[12.28689348,46.62376397],[12.28688533,46.6237372],[12.28685679,46.62369752],[12.28682242,46.62366926],[12.28678181,46.62364568],[12.28673453,46.62362004],[12.28668046,46.62359009],[12.28663333,46.6235667],[12.28658945,46.62354321],[12.28654516,46.62351298],[12.28649055,46.62347405],[12.28645237,46.6234369],[12.28641746,46.62339965],[12.2863998,46.62337766],[12.2863854,46.62335557],[12.2863676,46.62333133],[12.2863532,46.62330925],[12.28632467,46.62326957],[12.28629315,46.62323447],[12.28625796,46.62319273],[12.28620689,46.6231582],[12.28614712,46.62314192],[12.28608096,46.62312807],[12.28601752,46.62310514],[12.28600231,46.62306958],[12.28601942,46.62302859],[12.28601466,46.62300397],[12.28600678,46.6229817],[12.28598817,46.62294398],[12.28596303,46.62290646],[12.28593138,46.62286912],[12.28590353,46.62284067],[12.28588573,46.62281643],[12.2858712,46.62279209],[12.28586617,46.62276299],[12.28585802,46.62273622],[12.28585014,46.62271395],[12.28582799,46.62267183],[12.28580598,46.62263197],[12.2857981,46.62260969],[12.2857966,46.62258498],[12.28579185,46.62256037],[12.28579049,46.62253791],[12.28578478,46.62249757],[12.28577947,46.62235597],[12.28578449,46.62233108],[12.28583243,46.62220595],[12.28586855,46.62210141],[12.28587656,46.62207192],[12.28588118,46.62204029],[12.28588254,46.62200875],[12.28587723,46.62197515],[12.28586854,46.6219394],[12.28585726,46.62191498],[12.28584938,46.6218927],[12.28583715,46.62185255],[12.28582805,46.62181006],[12.28582669,46.6217876],[12.28582533,46.62176514],[12.28582043,46.62173828],[12.28581472,46.62158994],[12.28580982,46.62156308],[12.28581063,46.62141456],[12.2858147,46.62137394],[12.28584593,46.62124254],[12.28584986,46.62119967],[12.28584755,46.62116149],[12.28583885,46.62112574],[12.28582703,46.62109233],[12.28577976,46.62101269],[12.28577283,46.62100613],[12.28577256,46.62100164],[12.28574797,46.6209731],[12.28572691,46.62094895],[12.28567882,46.62090984],[12.28563087,46.62087296],[12.28560669,46.62085116],[12.28558563,46.62082701],[12.28556118,46.62080071],[12.28554339,46.62077648],[12.28551146,46.62073464],[12.28547628,46.6206929],[12.28545862,46.62067091],[12.28543756,46.62064677],[12.28540958,46.62061607],[12.28538499,46.62058753],[12.2853638,46.62056113],[12.28534274,46.62053699],[12.28530688,46.62048402],[12.28528229,46.62045547],[12.28526096,46.62042684],[12.28523271,46.62039165],[12.28521138,46.62036301],[12.28519318,46.62033203],[12.28517484,46.62029881],[12.2851531,46.62026343],[12.28513164,46.62023255],[12.28511371,46.62020607],[12.28509578,46.62017958],[12.28507771,46.62015085],[12.28505978,46.62012436],[12.28504483,46.62009329],[12.28502975,46.62005998],[12.28501848,46.62003555],[12.28500734,46.62001337],[12.28499185,46.61997331],[12.28497636,46.61993326],[12.28496115,46.61989769],[12.28495232,46.6198597],[12.28494022,46.61982179],[12.28493112,46.6197793],[12.2849265,46.61975694],[12.28492514,46.61973448],[12.28491699,46.61970771],[12.28490897,46.61968319],[12.28489009,46.61964098],[12.28487433,46.61959643],[12.28486957,46.61957182],[12.28486875,46.61950434],[12.28488301,46.61947018],[12.28493109,46.6194013],[12.28494522,46.61936489],[12.28495635,46.61933307],[12.28495771,46.61930153],[12.28495553,46.61926559],[12.28494303,46.61922095],[12.28493094,46.61918305],[12.28492211,46.61914505],[12.28491966,46.61910462],[12.28491463,46.61907551],[12.2849183,46.61902816],[12.28492645,46.61900092],[12.28493785,46.61891959],[12.28494627,46.61889685],[12.28495469,46.61887411],[12.28497126,46.61882413],[12.28498592,46.61879671],[12.28499394,46.61876723],[12.28499896,46.61874233],[12.28500262,46.61869498],[12.28500452,46.61867242],[12.28499623,46.61853541],[12.28502135,46.61841093],[12.2850261,46.61838154],[12.28505175,46.61815805],[12.2850527,46.61811977],[12.28505351,46.61807925],[12.28504821,46.61804565],[12.28504645,46.61801645],[12.28504481,46.6179895],[12.28504332,46.61796479],[12.28504169,46.61793784],[12.28504019,46.61791313],[12.28503516,46.61788402],[12.2850334,46.61785482],[12.28502524,46.61782806],[12.28501411,46.61780588],[12.28497906,46.61776638],[12.28493777,46.61773157],[12.28489294,46.61769236],[12.28486156,46.61765951],[12.28483385,46.6176333],[12.28478563,46.61759194],[12.28473117,46.61755525],[12.28469721,46.61753373],[12.28465673,46.61751239],[12.28459439,46.61750743],[12.28453897,46.61750903],[12.28448722,46.61751726],[12.28442896,46.61752569],[12.2843931,46.61752672],[12.28436023,46.61752316],[12.28432288,46.61749949],[12.28431445,46.61746823],[12.2843097,46.61744361],[12.28430481,46.61741675],[12.28430643,46.61738971],[12.28430467,46.61736051],[12.28431336,46.61728826],[12.28430833,46.61725915],[12.28431335,46.61723425],[12.28435776,46.61715873],[12.28440896,46.6170875],[12.284433,46.61705306],[12.28453935,46.61697575],[12.28459775,46.61691557],[12.28462545,46.61688778],[12.28465017,46.61686457],[12.28467475,46.61683911],[12.28472691,46.61678361],[12.28475773,46.61675347],[12.28478204,46.61672352],[12.28486611,46.61665586],[12.28489491,46.61664603],[12.28493416,46.61664715],[12.28497586,46.6166347],[12.2850075,46.61661804],[12.28503901,46.61659914],[12.28518175,46.61652978],[12.28522603,46.61650601],[12.28527316,46.6164754],[12.28536307,46.61639632],[12.28540761,46.61637703],[12.28543939,46.61636262],[12.28553243,46.6163352],[12.28559015,46.61631779],[12.28562221,46.61630786],[12.28565738,46.6162956],[12.28569229,46.61627885],[12.28585649,46.61618638],[12.28589479,46.61617177],[12.28593295,46.61615493],[12.28605491,46.61611992],[12.28615637,46.61606975],[12.28625687,46.61605786],[12.2863021,46.61604981],[12.28635032,46.61603717],[12.28640165,46.6160222],[12.28645204,46.6159915],[12.28655906,46.61592542],[12.28671416,46.61584446],[12.2867458,46.6158278],[12.28678139,46.61582227],[12.28681738,46.61582349],[12.28686016,46.61582901],[12.28689629,46.61583247],[12.28692889,46.61583153],[12.28695836,46.61583293],[12.28700087,46.61583396],[12.28706049,46.61579399],[12.28713057,46.61576498],[12.28721016,46.61573119],[12.28727263,46.61568439],[12.28731147,46.61562477],[12.28731635,46.61559763],[12.28730182,46.6155733],[12.28727411,46.6155471],[12.28725957,46.61552276],[12.28725794,46.61549581],[12.28727261,46.61546839],[12.28728985,46.61542964],[12.28732761,46.61540605],[12.28737894,46.61539108],[12.28742349,46.61537179],[12.28750389,46.61529748],[12.28760805,46.61523823],[12.28775622,46.61515072],[12.28780633,46.61511553],[12.28792815,46.61507827],[12.28797623,46.61506339],[12.28808896,46.61503764],[12.28814369,46.61502482],[12.28819557,46.61501883],[12.28831278,46.6150132],[12.28844249,46.61499822],[12.28849165,46.61500131],[12.2885309,46.61500243],[12.28856689,46.61500364],[12.28859963,46.61500495],[12.28863249,46.6150085],[12.28866509,46.61500757],[12.28869782,46.61500887],[12.28873368,46.61500784],[12.28877619,46.61500887],[12.28892274,46.6150024],[12.2889552,46.61499922],[12.28899092,46.61499594],[12.28902663,46.61499266],[12.28907213,46.6149891],[12.28911424,46.61498339],[12.28915308,46.61497777],[12.2891888,46.61497449],[12.28922452,46.61497122],[12.28925698,46.61496803],[12.28929596,46.61496466],[12.2893803,46.61495548],[12.28942471,46.61493395],[12.28957966,46.61485074],[12.28963398,46.61483118],[12.28970148,46.61481348],[12.28973679,46.61480347],[12.2897721,46.61479345],[12.28983308,46.61477594],[12.28989067,46.61475629],[12.28995422,46.61472746],[12.29003625,46.61468009],[12.29007468,46.61466774],[12.29009953,46.61464677],[12.2901142,46.61461935],[12.29012234,46.61459211],[12.29013742,46.61457143],[12.29019513,46.61455402],[12.29025027,46.61454793],[12.29030107,46.61452397],[12.29034479,46.61449121],[12.29040251,46.6144738],[12.29043456,46.61446387],[12.29046689,46.61445844],[12.29057649,46.61443504],[12.29060867,46.61442736],[12.29064412,46.61441959],[12.29074679,46.61438963],[12.29079147,46.61437259],[12.29084226,46.61434863],[12.29087689,46.61432738],[12.29091179,46.61431063],[12.2909471,46.61430061],[12.29099572,46.61429471],[12.29104706,46.61427973],[12.29108278,46.61427645],[12.29111836,46.61427093],[12.29118314,46.61426231],[12.29124127,46.61425164],[12.291296,46.61423881],[12.29134747,46.61422608],[12.29149863,46.61418798],[12.29153407,46.6141802],[12.29157903,46.61416766],[12.29162058,46.61415296],[12.29165902,46.6141406],[12.29172923,46.61411383],[12.29176427,46.61409932],[12.2918577,46.61407863],[12.29190279,46.61406833],[12.29194503,46.61406487],[12.29198686,46.61405466],[12.29203167,46.61403987],[12.29208165,46.61400243],[12.29214575,46.61398258],[12.29223009,46.6139734],[12.29226553,46.61396563],[12.29230383,46.61395103],[12.29240758,46.61388504],[12.29245212,46.61386575],[12.29252206,46.61383449],[12.2925575,46.61382672],[12.29265176,46.6138195],[12.29269725,46.61381594],[12.29273949,46.61381247],[12.29278811,46.61380657],[12.29293057,46.61373272],[12.29298421,46.61370192],[12.29301626,46.613692],[12.29305143,46.61367973],[12.29319647,46.61364855],[12.29327986,46.61362365],[12.29331815,46.61360904],[12.29335943,46.61358985],[12.2934037,46.61356608],[12.29352646,46.61349054],[12.29357969,46.613453],[12.29360767,46.6134297],[12.2936355,46.61340414],[12.29368058,46.61333984],[12.29370841,46.61331429],[12.29375336,46.61330175],[12.29380511,46.6132935],[12.29385726,46.613292],[12.29390248,46.61328395],[12.29395382,46.61326897],[12.2940194,46.61321983],[12.29404072,46.61319446],[12.29406204,46.6131691],[12.29407996,46.61314158],[12.29412897,46.61308841],[12.29416333,46.61306267],[12.29427861,46.6129716],[12.29432179,46.61292985],[12.29439565,46.61285572],[12.29444548,46.61281604],[12.29452098,46.61276886],[12.29444548,46.61281604],[12.29458155,46.61274461],[12.29463532,46.61271606],[12.29468272,46.61268994],[12.29477723,46.61263322],[12.29482788,46.61260701],[12.29488165,46.61257846],[12.2949486,46.61255178],[12.29518733,46.61245039],[12.29523825,46.61242867],[12.29549993,46.61232887],[12.29586469,46.61220585]]}}
