{
  "type": "FeatureCollection",
  "features": [
    {
      "type": "Feature",
      "properties": {
        "id": "carezza-fixture",
        "name": "Synthetic Carezza test route"
      },
      "geometry": {
        "type": "LineString",
        "coordinates": [
          [11.5712, 46.4090],
          [11.5704, 46.4102],
          [11.5710, 46.4115],
          [11.5726, 46.4126],
          [11.5747, 46.4131],
          [11.5771, 46.4128],
          [11.5787, 46.4117],
          [11.5791, 46.4104],
          [11.5780, 46.4092],
          [11.5758, 46.4084],
          [11.5734, 46.4083],
          [11.5712, 46.4090]
        ]
      }
    }
  ]
}
