{
  "type": "FeatureCollection",
  "features": [
    {
      "type": "Feature",
      "id": "alpe-siusi",
      "properties": {
        "name": "Alpe di Siusi Meadow Loop",
        "distanceKm": 7.5,
        "ascentM": 150,
        "durationHours": 2,
        "source": "ORMA repository route geometry",
        "verificationStatus": "field-review-required"
      },
      "geometry": {
        "type": "LineString",
        "coordinates": [
          [
            11.61807,
            46.54017
          ],
          [
            11.61838,
            46.54019
          ],
          [
            11.61874,
            46.53977
          ],
          [
            11.61881,
            46.53957
          ],
          [
            11.61869,
            46.53918
          ],
          [
            11.61821,
            46.53878
          ],
          [
            11.61807,
            46.53823
          ],
          [
            11.61851,
            46.53816
          ],
          [
            11.61941,
            46.53824
          ],
          [
            11.62092,
            46.53854
          ],
          [
            11.62129,
            46.5384
          ],
          [
            11.62179,
            46.53846
          ],
          [
            11.62283,
            46.5384
          ],
          [
            11.62374,
            46.53805
          ],
          [
            11.62393,
            46.53774
          ],
          [
            11.62387,
            46.53751
          ],
          [
            11.62296,
            46.53718
          ],
          [
            11.6222,
            46.53678
          ],
          [
            11.62173,
            46.53648
          ],
          [
            11.62171,
            46.53627
          ],
          [
            11.62193,
            46.53618
          ],
          [
            11.62326,
            46.53613
          ],
          [
            11.62397,
            46.53548
          ],
          [
            11.62685,
            46.53436
          ],
          [
            11.62805,
            46.53321
          ],
          [
            11.62909,
            46.53284
          ],
          [
            11.62959,
            46.53231
          ],
          [
            11.62956,
            46.53198
          ],
          [
            11.62982,
            46.53204
          ],
          [
            11.63043,
            46.53248
          ],
          [
            11.63206,
            46.53313
          ],
          [
            11.63314,
            46.53314
          ],
          [
            11.6342,
            46.53348
          ],
          [
            11.63598,
            46.53384
          ],
          [
            11.63791,
            46.53412
          ],
          [
            11.63962,
            46.5342
          ],
          [
            11.64108,
            46.53452
          ],
          [
            11.6414,
            46.53491
          ],
          [
            11.64243,
            46.53526
          ],
          [
            11.64364,
            46.53533
          ],
          [
            11.64493,
            46.53608
          ],
          [
            11.64507,
            46.53627
          ],
          [
            11.64502,
            46.5365
          ],
          [
            11.64477,
            46.53669
          ],
          [
            11.64326,
            46.53683
          ],
          [
            11.64238,
            46.53732
          ],
          [
            11.64117,
            46.53779
          ],
          [
            11.63965,
            46.53889
          ],
          [
            11.63831,
            46.53929
          ],
          [
            11.63692,
            46.53993
          ],
          [
            11.63455,
            46.54065
          ],
          [
            11.63357,
            46.54078
          ],
          [
            11.63223,
            46.54115
          ],
          [
            11.63076,
            46.54111
          ],
          [
            11.63037,
            46.54142
          ],
          [
            11.63045,
            46.54113
          ],
          [
            11.62937,
            46.54137
          ],
          [
            11.62839,
            46.54111
          ],
          [
            11.62757,
            46.54109
          ],
          [
            11.627,
            46.5408
          ],
          [
            11.62601,
            46.5408
          ],
          [
            11.62544,
            46.54063
          ],
          [
            11.62414,
            46.54054
          ],
          [
            11.6239,
            46.54064
          ],
          [
            11.62363,
            46.54101
          ],
          [
            11.62197,
            46.54115
          ],
          [
            11.62116,
            46.54104
          ],
          [
            11.62,
            46.54065
          ],
          [
            11.61933,
            46.54055
          ],
          [
            11.61924,
            46.54021
          ],
          [
            11.61807,
            46.54017
          ]
        ]
      }
    }
  ]
}
